HIERARCHY
ROOT hips
{
  OFFSET 0.0000 95.0000 0.0000
  CHANNELS 6 Xposition Yposition Zposition Zrotation Xrotation Yrotation
  JOINT spine
  {
    OFFSET 0.0000 15.0000 0.0000
    CHANNELS 3 Zrotation Xrotation Yrotation
    JOINT chest
    {
      OFFSET 0.0000 17.0000 0.0000
      CHANNELS 3 Zrotation Xrotation Yrotation
      JOINT neck
      {
        OFFSET 0.0000 20.0000 0.0000
        CHANNELS 3 Zrotation Xrotation Yrotation
        JOINT head
        {
          OFFSET 0.0000 10.0000 0.0000
          CHANNELS 3 Zrotation Xrotation Yrotation
          End Site
          {
            OFFSET 0.0000 19.0000 0.0000
          }
        }
      }
      JOINT left_shoulder
      {
        OFFSET 18.0000 15.0000 0.0000
        CHANNELS 3 Zrotation Xrotation Yrotation
        JOINT left_elbow
        {
          OFFSET 28.0000 0.0000 0.0000
          CHANNELS 3 Zrotation Xrotation Yrotation
          JOINT left_wrist
          {
            OFFSET 26.0000 0.0000 0.0000
            CHANNELS 3 Zrotation Xrotation Yrotation
            End Site
            {
              OFFSET 12.0000 0.0000 0.0000
            }
          }
        }
      }
      JOINT right_shoulder
      {
        OFFSET -18.0000 15.0000 0.0000
        CHANNELS 3 Zrotation Xrotation Yrotation
        JOINT right_elbow
        {
          OFFSET -28.0000 0.0000 0.0000
          CHANNELS 3 Zrotation Xrotation Yrotation
          JOINT right_wrist
          {
            OFFSET -26.0000 0.0000 0.0000
            CHANNELS 3 Zrotation Xrotation Yrotation
            End Site
            {
              OFFSET -12.0000 0.0000 0.0000
            }
          }
        }
      }
    }
  }
  JOINT left_hip
  {
    OFFSET 10.0000 -5.0000 0.0000
    CHANNELS 3 Zrotation Xrotation Yrotation
    JOINT left_knee
    {
      OFFSET 0.0000 -40.0000 0.0000
      CHANNELS 3 Zrotation Xrotation Yrotation
      JOINT left_ankle
      {
        OFFSET 0.0000 -41.0000 0.0000
        CHANNELS 3 Zrotation Xrotation Yrotation
        End Site
        {
          OFFSET 0.0000 -7.0000 17.0000
        }
      }
    }
  }
  JOINT right_hip
  {
    OFFSET -10.0000 -5.0000 0.0000
    CHANNELS 3 Zrotation Xrotation Yrotation
    JOINT right_knee
    {
      OFFSET 0.0000 -40.0000 0.0000
      CHANNELS 3 Zrotation Xrotation Yrotation
      JOINT right_ankle
      {
        OFFSET 0.0000 -41.0000 0.0000
        CHANNELS 3 Zrotation Xrotation Yrotation
        End Site
        {
          OFFSET 0.0000 -7.0000 17.0000
        }
      }
    }
  }
}
MOTION
Frames: 156
Frame Time: 0.033333
2.7167 69.4330 0.0000 -17.5340 39.7515 17.4855 11.3471 -1.0762 -8.6068 11.3471 -1.0762 -8.6068 8.2785 -15.1767 13.6978 8.2785 -15.1767 13.6978 -40.8752 23.4748 -58.2845 -8.5324 1.7757 -23.4714 13.0832 -2.7152 -23.3541 17.2990 15.3794 83.1849 -12.1161 -1.1470 10.7763 0.0000 0.0000 -0.0000 158.7049 -69.0981 149.4557 -176.4394 78.5151 175.6439 0.0000 -0.0000 -0.0000 -111.6155 -55.7376 -75.7870 92.1767 39.9573 -41.3760 -18.7459 -11.9520 -36.8761
2.7274 74.0488 0.0000 -15.5925 36.0393 16.3555 10.1708 -1.0102 -9.3262 10.1708 -1.0102 -9.3262 8.6756 -13.2702 12.6528 8.6756 -13.2702 12.6528 -45.7666 23.2494 -51.9694 -6.1383 1.6411 -29.9107 6.6849 -1.9194 -32.0087 17.2546 14.9844 81.8377 -41.8880 -8.0545 20.8459 0.0000 0.0000 -0.0000 133.5257 -77.0922 123.3596 -142.1342 85.4245 139.2333 -0.0649 0.0979 -0.1579 -88.4589 -61.7362 -60.3874 79.7492 48.3104 -41.0768 -21.0757 -15.8487 -39.2916
2.6850 79.9403 0.0000 -12.8224 30.3736 14.6350 7.9131 -0.8160 -10.8259 7.9131 -0.8160 -10.8259 9.1944 -10.9311 11.7423 9.1944 -10.9311 11.7423 -44.7252 19.9535 -46.3009 9.1898 -4.6952 -54.0522 10.7859 -7.4908 -69.4775 19.7938 16.9056 80.8464 -60.8406 -15.5452 26.1734 -1.9176 -0.0556 3.3194 61.0336 -76.7482 50.0416 -33.6439 82.7699 29.8347 -0.6415 2.3039 -1.6243 -53.7197 -59.2694 -32.1443 59.9605 51.6835 -31.2205 -21.3659 -14.1480 -40.6118
2.5202 85.7013 0.0000 -9.8731 22.0610 13.1432 5.3042 -0.4722 -12.0871 5.3042 -0.4722 -12.0871 9.7212 -7.0688 10.6775 9.7212 -7.0688 10.6775 -42.0133 16.0188 -40.2487 30.1999 -24.7812 -78.3061 19.6597 -8.4317 -46.0931 23.9011 19.1964 77.2473 -67.6889 -19.8824 29.2960 -3.8778 -0.2416 7.1274 29.2094 -62.1289 17.8412 -13.4104 72.9450 9.9338 -1.1605 6.6074 -3.1991 -32.5998 -49.2950 -15.2838 45.1023 52.6044 -23.1982 -19.5791 -8.6263 -40.1203
2.3739 89.7476 0.0000 -7.5481 14.3961 12.6392 2.8141 0.0110 -12.5589 2.8141 0.0110 -12.5589 9.2902 -3.3256 9.7451 9.2902 -3.3256 9.7451 -30.2684 9.9055 -35.5316 70.9543 -42.6541 -57.4297 24.7919 -4.8069 -21.6228 19.9605 15.1344 74.1004 -79.5868 -19.1929 22.9475 -6.4014 -0.5210 9.2967 19.4062 -48.8316 8.8769 -2.9160 64.8654 1.8531 -1.5350 12.0509 -4.7924 -20.6297 -38.2483 -7.2221 30.1602 50.3268 -14.4285 -19.4085 -8.1067 -40.0707
2.3486 92.7558 0.0000 -5.0068 3.8586 12.4675 -0.1855 0.5455 -12.3517 -0.1855 0.5455 -12.3517 10.2230 0.6068 7.7980 10.2230 0.6068 7.7980 1.5517 -0.4470 -32.1373 80.4470 -21.2981 -25.0682 25.7855 -2.2685 -9.8871 11.4007 7.4339 66.1135 -72.7891 -12.6158 17.0575 -10.1522 -1.0265 11.5171 14.3667 -34.6462 4.5024 1.6889 55.3854 -0.8865 -2.1338 14.2541 -7.0506 -14.2835 -24.6182 -3.1321 19.2165 44.8416 -7.9908 -19.5708 -12.3294 -38.2294
2.3400 94.2978 0.0000 -3.2795 -3.4935 12.6317 -2.1956 0.9431 -13.0438 -2.1956 0.9431 -13.0438 11.2006 3.3399 7.0233 11.2006 3.3399 7.0233 34.4201 -8.1958 -26.0471 62.2059 -6.4797 -10.7203 23.0116 -0.8816 -4.3287 -2.1891 -1.1593 55.8076 -66.9183 -4.4499 6.7292 -14.8911 -1.3864 10.5789 11.5536 -24.7451 2.5426 5.7901 48.2508 -2.5949 -3.0536 15.2724 -10.3633 -10.9852 -14.5288 -1.4045 12.8013 39.3939 -4.5995 -16.1290 -12.9252 -31.5448
2.3518 95.6789 0.0000 -2.8395 -5.5759 12.8506 -2.8199 1.1770 -13.6697 -2.8199 1.1770 -13.6697 11.6571 3.3801 7.4300 11.6571 3.3801 7.4300 61.6187 -6.0578 -10.1412 42.4731 -1.7381 -4.4707 22.4826 -0.4805 -2.4174 -17.6704 -6.5588 40.4705 -55.2310 -0.8618 1.6472 -19.3401 -1.3658 8.0029 10.2178 -20.3935 1.8426 8.1087 41.7363 -3.0957 -3.8817 18.2732 -14.3742 -8.1368 -10.5321 -0.7512 7.4648 34.9251 -2.3513 -12.0050 -10.8729 -24.3279
2.3891 96.7874 0.0000 -3.5018 -3.0710 13.1658 -2.3737 1.3116 -14.5986 -2.3737 1.3116 -14.5986 11.3099 1.8005 11.4873 11.3099 1.8005 11.4873 73.5866 2.2053 2.9483 30.1785 -1.4986 -5.5540 24.3413 0.1260 0.5841 -29.2522 -7.2390 27.2504 -44.4440 -2.3494 5.7466 -20.5148 -0.6766 3.7377 9.4358 -20.6931 1.7265 10.4211 37.2836 -3.5242 -4.2862 21.4584 -17.6454 -5.0378 -12.0604 -0.5325 2.4079 32.6708 -0.7058 -9.0311 -9.8682 -18.6484
2.4542 100.7209 0.0000 -3.9393 -1.1385 13.4391 -1.8878 1.2411 -14.8425 -1.8878 1.2411 -14.8425 11.8468 0.5663 12.0048 11.8468 0.5663 12.0048 79.2511 4.9139 5.9329 21.4356 -0.1149 -0.6071 26.8501 -0.7491 -3.1375 -39.8144 -6.0095 16.4949 -32.8857 -2.5193 8.5220 -22.4043 -0.1545 0.7802 9.3868 -21.4015 1.7776 11.2789 35.8715 -3.6614 -4.5223 23.5642 -20.1463 -2.9672 -13.8955 -0.3617 -0.5425 32.6576 0.1589 -7.7334 -10.6201 -15.8317
2.5842 106.9809 0.0000 -4.0286 -0.1995 13.7340 -1.5781 1.1497 -15.1751 -1.5781 1.1497 -15.1751 12.8351 -0.2454 10.4997 12.8351 -0.2454 10.4997 81.9279 6.7154 7.7322 15.9527 0.3155 2.2516 28.5478 -0.9715 -3.8174 -48.9156 -7.1275 15.5936 -21.2443 -0.5526 2.9461 -24.8500 -0.7322 3.3224 9.6984 -21.2413 1.8228 10.9135 34.9810 -3.4484 -4.6523 25.9143 -22.8844 -2.2899 -13.9846 -0.2809 -1.6046 31.6861 0.4554 -8.1201 -11.4802 -16.4212
2.6298 112.0373 0.0000 -3.9560 0.2551 13.9346 -1.6148 1.1122 -15.4464 -1.6148 1.1122 -15.4464 13.3809 -1.0522 9.5962 13.3809 -1.0522 9.5962 84.3021 7.6204 8.4158 11.8317 0.3907 3.7694 29.4099 -1.3181 -5.0194 -54.2649 -7.9264 15.3993 -13.8725 0.3272 -2.6891 -26.2730 -1.6699 7.1464 9.9577 -21.2152 1.8694 10.3041 34.8088 -3.2379 -4.7799 27.7838 -25.6836 -2.0017 -13.5829 -0.2384 -2.3710 30.9507 0.6565 -8.8231 -11.8027 -17.7491
2.7072 114.5445 0.0000 -3.6642 -0.1282 14.0762 -1.9033 1.1435 -15.3730 -1.9033 1.1435 -15.3730 13.7509 -1.3096 8.8494 13.7509 -1.3096 8.8494 86.2170 7.9176 8.4565 8.6568 0.3778 4.9890 29.9465 -1.6195 -6.0502 -57.1229 -7.9654 14.5775 -10.2031 0.5391 -6.0331 -26.9600 -2.5549 10.6293 9.9751 -20.8415 1.8390 10.0522 35.2284 -3.1989 -4.8155 29.0742 -27.6789 -2.3497 -12.8868 -0.2654 -1.9639 31.0793 0.5461 -9.5176 -12.0098 -19.0745
2.6711 115.7052 0.0000 -3.4501 -0.1046 14.1480 -2.0395 1.1025 -15.3611 -2.0395 1.1025 -15.3611 13.8323 -1.3934 8.4111 13.8323 -1.3934 8.4111 87.0745 8.3170 8.7512 7.2863 0.3537 5.5503 30.2069 -1.8368 -6.7986 -59.7443 -7.9972 13.8777 -7.6060 0.5171 -7.7667 -28.2702 -3.2348 12.7951 9.9554 -21.3689 1.8829 10.0221 36.0181 -3.2656 -5.1583 28.8967 -29.2864 -2.5390 -13.0960 -0.2915 -2.2472 31.5215 0.6343 -9.7436 -13.0213 -19.2619
2.6385 115.8180 0.0000 -3.3307 -0.0104 14.1905 -2.2799 1.1337 -15.4453 -2.2799 1.1337 -15.4453 14.0129 -1.6416 8.0546 14.0129 -1.6416 8.0546 88.0432 8.3000 8.5874 6.4582 0.3328 5.8940 29.7857 -1.8629 -6.9968 -60.9020 -8.1722 13.8564 -6.3996 0.4978 -8.8873 -28.4772 -3.4290 13.4547 10.1275 -21.2324 1.9031 9.6732 36.3015 -3.1779 -5.2747 28.9506 -30.0055 -2.7816 -13.2177 -0.3223 -2.2562 31.7961 0.6427 -9.8811 -14.1085 -19.2568
2.5645 115.3719 0.0000 -3.1467 -0.2973 14.1920 -2.6227 1.1815 -15.4125 -2.6227 1.1815 -15.4125 14.1079 -1.5684 7.6303 14.1079 -1.5684 7.6303 88.8711 7.6436 7.7952 6.4053 0.3897 6.9565 28.4815 -1.9428 -7.6442 -61.3361 -8.1251 13.6595 -6.0156 0.5109 -9.6994 -28.6566 -3.6893 14.3730 10.2526 -20.8940 1.8953 9.3021 36.3897 -3.0634 -5.3828 28.7767 -30.3100 -3.0950 -12.8255 -0.3479 -2.1169 31.8073 0.6032 -9.9866 -14.7816 -19.2932
2.4750 114.2537 0.0000 -2.9431 -0.7572 14.1616 -2.8882 1.1783 -15.2932 -2.8882 1.1783 -15.2932 14.1235 -1.4411 7.1449 14.1235 -1.4411 7.1449 89.3227 6.7869 6.8674 6.7459 0.4629 7.8414 27.0423 -1.9521 -8.1052 -61.2417 -8.2381 13.8742 -6.3696 0.5900 -10.5731 -28.9084 -3.9719 15.3232 10.3693 -20.3431 1.8654 8.9332 36.6917 -2.9676 -5.1728 29.2914 -30.0018 -3.4889 -12.1615 -0.3718 -1.7546 31.8907 0.5014 -10.2500 -15.6859 -19.5711
2.3672 113.5303 0.0000 -2.7066 -1.4212 14.0820 -3.1322 1.1425 -15.1110 -3.1322 1.1425 -15.1110 14.1320 -1.2905 6.6545 14.1320 -1.2905 6.6545 89.6852 5.8181 5.8501 7.2683 0.5468 8.5934 25.4211 -1.9673 -8.7063 -61.0464 -8.4959 14.3606 -6.9659 0.6734 -11.0292 -28.9735 -4.2186 16.2256 10.3993 -19.9255 1.8316 8.5571 37.2495 -2.8887 -5.0949 28.9778 -29.0679 -4.0715 -11.5140 -0.4106 -1.1810 31.9893 0.3385 -10.8987 -16.3094 -20.6308
2.2489 110.5831 0.0000 -2.3846 -2.4553 13.9586 -3.4121 1.0930 -14.8392 -3.4121 1.0930 -14.8392 14.0365 -0.7747 6.1647 14.0365 -0.7747 6.1647 89.5224 3.7518 3.7832 8.5581 0.7068 9.4252 24.2686 -2.0671 -9.5928 -60.3067 -9.2578 15.8689 -8.3543 0.8494 -11.5909 -28.5804 -4.3961 17.1385 10.3418 -19.2459 1.7581 8.1707 37.9620 -2.8146 -4.8964 28.6709 -27.5221 -4.9003 -10.6081 -0.4552 -0.4376 32.1617 0.1261 -11.6415 -17.1289 -21.7939
2.1835 104.3628 0.0000 -2.1007 -3.3655 13.8063 -3.6172 1.0450 -14.5401 -3.6172 1.0450 -14.5401 14.0192 -0.4859 5.8551 14.0192 -0.4859 5.8551 88.6232 2.2840 2.3395 10.5743 0.9004 9.7071 23.1599 -2.0740 -10.0967 -59.1073 -10.0494 17.6287 -10.2072 1.0346 -11.5453 -28.2810 -4.5338 17.8594 10.2889 -18.6884 1.6975 7.7573 38.6574 -2.7246 -5.2493 26.2777 -26.1594 -5.9895 -9.8077 -0.5143 0.3576 32.0547 -0.1027 -12.5153 -17.3747 -23.3294
2.1382 99.4574 0.0000 -1.8754 -4.0378 13.5971 -3.7560 0.9861 -14.1150 -3.7560 0.9861 -14.1150 13.7972 -0.1040 5.7512 13.7972 -0.1040 5.7512 86.8843 1.9681 2.0781 13.7462 1.1416 9.4496 22.3435 -1.9616 -9.9086 -57.3599 -10.4622 19.0026 -12.7646 1.2902 -11.4962 -27.9603 -4.6081 18.3607 10.3164 -18.4371 1.6787 7.1897 39.4039 -2.5775 -4.9088 26.3868 -24.6372 -7.4288 -9.2935 -0.6046 2.2783 32.1227 -0.6560 -13.6089 -16.5691 -25.5693
2.1217 97.0114 0.0000 -1.7338 -4.2019 13.1630 -3.8074 0.9179 -13.6657 -3.8074 0.9179 -13.6657 13.5698 0.1215 5.6061 13.5698 0.1215 5.6061 84.4004 1.8384 2.0274 18.0281 1.4639 9.2090 22.0615 -1.8635 -9.5382 -55.2475 -10.6127 20.1282 -16.2007 1.6267 -11.3921 -27.9496 -4.6193 18.4116 10.4152 -18.9282 1.7409 6.2746 40.7652 -2.3334 -4.4208 26.3245 -22.1854 -9.5367 -9.5469 -0.7982 5.3443 32.2763 -1.5474 -14.6930 -15.8193 -27.8040
2.1499 96.8256 0.0000 -1.5989 -4.6047 12.9017 -3.8743 0.8727 -13.2739 -3.8743 0.8727 -13.2739 13.2470 0.6564 5.2747 13.2470 0.6564 5.2747 80.2297 1.3496 1.6018 25.0832 2.0573 9.2291 21.3497 -1.7076 -9.0411 -52.2778 -11.0060 22.2142 -20.7753 1.9824 -10.7833 -27.3386 -4.4020 17.9603 10.5868 -19.9241 1.8647 5.5462 43.6616 -2.2232 -3.1803 29.5189 -18.9474 -12.4571 -10.3741 -1.1353 10.1088 33.9568 -3.0937 -15.9635 -15.3702 -30.2967
2.2947 95.5035 0.0000 -1.1408 -6.6804 12.8183 -4.2110 0.8582 -12.8147 -4.2110 0.8582 -12.8147 12.6146 2.2751 4.9669 12.6146 2.2751 4.9669 74.2791 1.1311 1.4934 35.1604 3.6626 11.5249 20.1700 -1.6898 -9.4797 -45.3217 -10.4177 24.6346 -30.5720 2.2956 -8.3853 -26.1658 -4.0957 17.4943 10.6321 -21.9344 2.0661 5.8191 49.9737 -2.7137 -2.4163 31.6223 -16.4880 -16.5256 -12.1248 -1.7672 17.0700 39.0018 -6.0845 -16.4831 -13.5965 -31.9397
2.3390 93.6606 0.0000 -1.4081 -5.8197 12.7280 -4.1596 0.8314 -11.7220 -4.1596 0.8314 -11.7220 11.5364 3.2091 4.9240 11.5364 3.2091 4.9240 60.0385 -3.2586 -5.6367 56.7093 4.4180 8.1766 16.7062 -1.2125 -8.2440 -28.8055 -10.1895 38.2908 -44.9419 -0.7363 1.7799 -24.8781 -2.9805 13.4532 10.6705 -27.8630 2.6541 5.7615 56.8984 -3.1235 -1.7169 33.4368 -13.4445 -19.8141 -16.7672 -2.9489 23.6130 44.2702 -9.7200 -18.6075 -14.4726 -35.4880
2.3572 90.1628 0.0000 -2.3454 -2.3119 12.6658 -3.5034 0.7451 -10.9033 -3.5034 0.7451 -10.9033 10.1471 3.5892 4.7429 10.1471 3.5892 4.7429 34.8514 -3.8044 -12.0804 92.6634 -0.4337 -0.4140 13.6425 -0.5282 -4.4136 -2.2688 -1.1804 54.9676 -64.4517 -8.7482 13.8374 -20.8117 -3.6663 19.7727 11.1275 -39.1206 3.9645 6.0230 65.5519 -3.8801 -1.9972 29.2222 -11.7605 -24.1652 -25.8376 -5.6221 32.5543 50.1694 -15.5662 -21.1324 -14.8861 -39.8412
2.3051 86.7596 0.0000 -4.5228 6.3237 12.8929 -1.1027 0.4908 -11.6423 -1.1027 0.4908 -11.6423 9.5382 1.9244 6.7251 9.5382 1.9244 6.7251 -1.7023 0.2887 -19.2469 33.6666 -40.4397 -101.1983 26.4150 -2.8762 -12.2115 15.8339 9.5963 62.2315 -53.0104 -20.4317 39.7369 -20.6737 -5.4196 29.0940 13.8591 -53.6634 7.0359 3.5558 72.2961 -2.5979 -2.5000 22.8397 -10.8954 -29.6715 -38.1920 -10.4790 40.9342 52.1474 -20.6999 -23.1047 -14.3982 -43.5669
2.2893 83.9887 0.0000 -7.0058 15.6527 13.4311 1.7768 0.0277 -11.9041 1.7768 0.0277 -11.9041 8.9493 -2.6377 7.9253 8.9493 -2.6377 7.9253 -19.2258 3.9710 -23.1355 -8.2948 9.4994 -97.7764 5.9137 -3.2404 -57.4110 20.6388 13.7521 67.0317 -44.1032 -19.1234 45.1600 -21.2566 -7.6264 39.1077 20.2057 -66.3086 13.2780 -1.8449 76.3936 1.4516 -3.1378 15.3924 -10.6836 -38.3610 -48.5019 -17.8121 47.7792 51.1321 -23.9269 -24.8310 -15.1720 -46.1613
2.5434 81.6890 0.0000 -9.1855 22.3386 14.1405 3.9100 -0.2970 -11.7304 3.9100 -0.2970 -11.7304 9.0559 -6.0424 9.2202 9.0559 -6.0424 9.2202 -31.0548 6.8720 -24.3882 -31.5808 14.9702 -49.8403 -18.9074 8.9039 -50.1201 24.6203 16.9073 68.5153 -27.7490 -9.2733 36.3548 -17.7730 -8.8216 52.5179 33.7489 -74.3773 25.9219 -15.2897 76.6402 12.1107 -3.5891 7.4517 -10.0537 -52.7916 -56.5746 -29.9087 56.2043 50.9417 -28.5434 -26.4530 -15.9293 -48.5112
2.6501 76.7374 0.0000 -12.2336 29.9821 15.5229 5.9635 -0.4705 -10.9653 5.9635 -0.4705 -10.9653 9.3625 -10.6347 11.8020 9.3625 -10.6347 11.8020 -37.1845 9.5702 -27.9486 -26.4718 8.6604 -35.6895 -14.7584 5.3211 -39.4771 30.6445 20.3583 66.4763 -4.9554 -1.1171 25.3924 -4.0297 -2.6299 66.2467 96.4105 -82.1395 88.5388 -31.0027 81.4679 26.8662 -4.8653 -0.5090 -11.6776 -77.7781 -61.7772 -51.5157 67.1898 48.9665 -33.6601 -29.3743 -15.6642 -53.5119
2.8528 71.5711 0.0000 -16.7783 39.5253 18.1714 8.3058 -0.5897 -9.8961 8.3058 -0.5897 -9.8961 9.8445 -16.4271 14.0350 9.8445 -16.4271 14.0350 -34.7546 11.9290 -36.9235 -16.2185 4.9373 -33.6689 -4.2821 1.5116 -38.8711 23.7618 18.2029 74.5757 -4.9744 -0.7603 17.3703 -6.8318 -4.5654 67.4722 156.3374 -71.6415 147.6313 -71.3353 83.1052 64.9257 -5.6972 -5.6011 -12.5756 -111.2076 -58.7243 -78.8251 79.4266 43.2223 -36.4274 -33.9445 -13.6288 -62.1590
2.8968 68.4819 0.0000 -22.5508 48.3649 22.3222 10.2859 -0.5447 -7.9540 10.2859 -0.5447 -7.9540 10.1185 -20.6056 16.2130 10.1185 -20.6056 16.2130 -25.4483 12.6867 -52.4237 -8.8877 2.1038 -26.5855 11.8905 -3.7568 -34.9617 10.8963 9.8779 84.3562 -8.6799 -0.7703 10.1233 -19.7218 -10.7031 56.6410 166.0812 -58.7134 155.5117 -101.5743 80.1237 91.7279 -3.9492 -6.8987 -8.5613 -128.0204 -50.2722 -87.8072 86.7036 33.9049 -32.1086 -37.9067 -9.2081 -71.5618
2.8567 66.8396 0.0000 -27.3635 53.3786 26.0589 11.1981 -0.4257 -6.6484 11.1981 -0.4257 -6.6484 9.7564 -23.1104 16.7466 9.7564 -23.1104 16.7466 -17.0901 10.2097 -61.4663 -8.5852 1.6597 -21.8450 20.0338 -5.3520 -29.6432 3.1388 3.0819 88.9518 -6.0402 -0.2124 4.0235 -28.2522 -13.9916 51.9869 167.2845 -50.3536 153.3305 -114.4602 74.1452 99.1389 -1.2818 -6.8743 -2.7835 -134.6854 -40.7832 -83.3709 93.8233 21.6182 -23.0724 -38.2444 -0.4707 -79.7317
2.8481 64.4895 0.0000 -31.4844 56.3237 29.3556 11.8876 -0.3439 -5.6391 11.8876 -0.3439 -5.6391 9.8574 -23.7899 17.0716 9.8574 -23.7899 17.0716 -12.0605 8.1759 -68.1608 -7.9964 1.2112 -17.1989 26.0965 -5.7989 -24.6556 -1.1137 -1.1463 91.6520 -5.6959 0.0472 -0.9483 -34.6739 -16.1538 48.8918 166.8291 -43.7906 147.9465 -116.7390 66.2570 93.3109 2.4674 -8.0265 5.2649 -137.3873 -31.9726 -72.5989 98.8988 7.2243 -8.4394 -36.3320 10.7636 -89.6089
2.7628 62.6148 0.0000 -35.7160 58.5688 32.7755 12.2814 -0.2736 -5.0569 12.2814 -0.2736 -5.0569 9.5542 -24.7515 17.8854 9.5542 -24.7515 17.8854 -8.5519 6.3745 -73.3556 -6.7238 0.7033 -11.9296 30.5591 -5.3462 -19.3966 -3.8425 -4.1465 94.3620 -6.1249 0.2585 -4.8294 -37.3240 -14.6976 41.7992 166.5014 -38.2473 142.3098 -117.6734 59.1820 86.3977 6.3839 -7.4574 13.6932 -137.8221 -24.4815 -58.7214 103.8131 -8.4827 10.8086 -32.6471 20.6672 -99.4722
2.3102 60.9806 0.0000 -39.1056 60.1714 35.4005 12.7215 -0.2577 -4.4842 12.7215 -0.2577 -4.4842 8.9557 -25.0009 18.2454 8.9557 -25.0009 18.2454 -6.1036 4.8310 -76.7040 -6.4935 0.4764 -8.3824 35.5414 -5.0565 -15.6882 -5.4428 -6.0363 95.9286 -7.5250 0.4219 -6.4085 -37.0044 -13.5618 39.1225 166.4526 -34.1683 137.7397 -118.2237 54.2866 81.1950 8.6118 -7.0924 18.5148 -136.6470 -18.5546 -44.6823 110.1663 -22.5721 31.9096 -28.6233 23.0309 -96.6542
2.2477 58.6047 0.0000 -40.6075 60.7655 36.2551 13.0392 -0.2522 -4.0159 13.0392 -0.2522 -4.0159 8.7726 -24.5678 18.6019 8.7726 -24.5678 18.6019 -5.2757 4.3957 -79.5901 -6.2234 0.3483 -6.4005 39.2712 -5.0579 -14.1137 -6.0418 -6.7170 96.0706 -8.9351 0.4536 -5.8010 -35.9693 -12.8060 38.1400 166.3441 -30.2388 132.1970 -121.2389 48.3773 77.1656 9.7330 -7.5977 20.7326 -134.4796 -13.3899 -31.2621 118.7490 -33.5003 53.8971 -25.6326 23.5456 -91.2874
1.8031 56.7877 0.0000 -40.6350 60.5754 35.8586 13.1975 -0.2458 -3.6904 13.1975 -0.2458 -3.6904 8.4803 -24.0345 18.7575 8.4803 -24.0345 18.7575 -5.9208 5.0540 -80.9543 -5.6619 0.2945 -5.9496 40.5951 -5.5262 -14.8688 -5.4992 -6.1033 95.9713 -10.3551 0.4583 -5.0548 -37.6867 -13.7038 38.7944 166.0468 -27.5030 126.8674 -124.1654 43.0910 73.3837 10.5859 -7.1865 22.6493 -133.0171 -9.5615 -21.7838 127.0583 -38.6820 70.3594 -22.7653 25.1700 -88.2411
1.2562 55.2865 0.0000 -41.5467 61.0858 36.3138 13.4228 -0.2309 -3.0450 13.4228 -0.2309 -3.0450 8.0006 -23.8302 19.3881 8.0006 -23.8302 19.3881 -5.9319 5.1859 -82.3103 -5.0305 0.2586 -5.8822 43.2873 -5.7490 -14.4235 -5.2490 -5.8471 96.1803 -11.9979 0.4924 -4.6830 -39.9235 -14.1295 37.6802 166.1002 -23.9257 120.1750 -124.6643 37.1914 65.3787 11.2767 -4.3365 25.1423 -132.1044 -6.4138 -14.3802 133.8814 -42.1962 84.3751 -20.4841 25.7617 -83.5913
1.3347 53.3963 0.0000 -40.2398 60.1285 34.8151 13.7428 -0.2974 -3.4648 13.7428 -0.2974 -3.4648 7.6698 -22.6807 19.3001 7.6698 -22.6807 19.3001 -9.3729 8.1122 -81.7200 -4.0344 0.1973 -5.5962 45.5851 -6.3051 -14.9348 -2.7282 -3.0840 97.0082 -14.0667 0.3103 -2.5151 -37.7179 -13.9926 39.5239 166.1401 -22.2503 116.5614 -125.6953 34.2757 62.0320 11.3643 -4.2576 25.3634 -131.2175 -4.5118 -9.9304 138.6818 -42.7575 92.1491 -20.7429 22.5263 -76.6328
1.6087 53.5370 0.0000 -40.2807 60.1675 34.4688 13.8566 -0.3118 -3.4057 13.8566 -0.3118 -3.4057 7.7687 -22.2967 19.3033 7.7687 -22.2967 19.3033 -9.1083 7.9446 -82.1641 -4.4227 0.2091 -5.4115 48.9296 -6.4000 -14.0109 -2.5013 -2.8482 97.4239 -14.4132 0.2249 -1.7785 -39.2412 -14.9197 40.3368 166.1531 -21.9668 115.9347 -124.9311 34.4666 61.5046 10.6274 -3.4479 24.0597 -132.0754 -4.0778 -9.1595 139.7744 -43.5978 95.0443 -18.6698 24.0424 -74.0534
1.4639 54.1279 0.0000 -39.1259 59.2553 33.3237 13.8138 -0.3335 -3.8350 13.8138 -0.3335 -3.8350 7.9269 -22.0111 19.1209 7.9269 -22.0111 19.1209 -10.3546 8.9278 -81.4963 -4.6880 0.1883 -4.5987 48.6869 -6.2669 -13.7984 -1.9047 -2.1841 97.8185 -13.4177 0.1647 -1.4004 -36.0235 -13.1325 38.9895 166.2232 -23.4111 119.5092 -125.1893 37.9483 67.1007 8.0462 -4.1320 18.1113 -133.6410 -7.2661 -16.8697 132.4145 -39.6051 78.4752 -20.9184 13.0697 -61.2353
1.5051 55.5672 0.0000 -38.0172 58.3895 32.3486 13.6722 -0.3017 -4.0805 13.6722 -0.3017 -4.0805 7.9175 -21.8401 18.7970 7.9175 -21.8401 18.7970 -10.2743 8.7225 -80.6174 -6.1904 0.2813 -5.1984 50.7484 -5.5560 -11.6831 -2.4832 -2.8606 98.0814 -11.6042 0.1787 -1.7589 -35.7877 -12.7841 38.2707 166.1327 -26.1275 124.6832 -124.5689 43.1387 73.9198 5.8540 -3.8368 13.2806 -135.6759 -10.7689 -26.0580 124.7337 -34.3476 61.1091 -19.3032 8.1408 -51.7164
1.5808 57.0947 0.0000 -37.1716 57.7747 31.7251 13.5645 -0.2557 -4.1495 13.5645 -0.2557 -4.1495 7.7961 -21.7477 18.5138 7.7961 -21.7477 18.5138 -9.1272 7.5482 -79.1443 -8.5410 0.6100 -8.1559 51.2767 -5.1260 -10.6567 -3.6019 -4.1670 98.3273 -8.3405 0.1840 -2.5227 -34.6652 -11.7155 36.3949 166.0766 -28.7984 129.1284 -121.3336 47.7683 76.4766 3.8471 -2.6909 8.9097 -137.9014 -14.1068 -35.6454 117.1212 -28.9536 45.7909 -15.4558 4.5780 -39.4946
1.7052 59.8851 0.0000 -36.0465 56.7916 30.9426 13.5166 -0.2410 -4.3329 13.5166 -0.2410 -4.3329 8.4159 -22.0479 18.2009 8.4159 -22.0479 18.2009 -10.6631 8.4516 -76.7409 -9.3540 0.9105 -11.0953 45.8057 -5.1022 -12.0404 -2.7855 -3.2156 98.2033 -5.5689 0.1969 -4.0471 -31.5971 -10.4219 35.7307 166.0678 -33.5575 135.8808 -117.8362 54.5498 81.0810 2.5640 -2.1665 5.9953 -139.3032 -19.1314 -48.8735 110.1319 -17.9807 25.5248 -13.3862 2.0504 -32.9510
1.5640 62.3693 0.0000 -34.1282 55.2621 29.7227 13.4902 -0.2481 -4.4543 13.4902 -0.2481 -4.4543 8.4731 -22.7755 17.1026 8.4731 -22.7755 17.1026 -12.5875 9.4197 -73.5203 -10.7185 1.5170 -16.0657 40.8690 -6.1251 -16.3436 -1.7423 -1.9677 96.9550 -2.9248 0.0773 -3.0277 -30.0889 -10.2931 37.0512 166.4198 -37.4754 141.3168 -116.0538 60.4678 86.0702 1.3974 -1.8337 3.2876 -139.7192 -25.5932 -63.5410 103.8091 -3.8249 4.8778 -11.1514 -0.8251 -26.3079
1.1002 65.2508 0.0000 -30.8912 52.2543 27.4427 13.6181 -0.3001 -4.8072 13.6181 -0.3001 -4.8072 8.4355 -22.8598 16.1310 8.4355 -22.8598 16.1310 -14.8634 10.7083 -71.3941 -13.9373 2.3003 -18.6554 35.9006 -6.7938 -20.7653 1.3263 1.4650 95.6908 -1.1143 0.0219 -2.2477 -28.6580 -12.1618 45.2782 166.5898 -44.0479 147.5893 -115.1920 68.7085 94.2423 0.7727 -2.5508 1.7965 -139.1378 -33.8232 -78.4423 98.5599 12.9883 -15.0671 -12.2378 -2.6365 -27.9544
1.0813 67.9199 0.0000 -28.0740 49.5579 25.5157 13.1825 -0.3149 -5.3614 13.1825 -0.3149 -5.3614 9.3148 -22.2583 15.9399 9.3148 -22.2583 15.9399 -19.0171 13.0060 -68.4741 -14.1136 2.4665 -19.7306 27.0402 -5.3394 -21.9495 5.1436 5.5221 94.0711 -2.3420 0.0082 -0.4010 -23.4642 -11.1014 50.1550 167.4214 -51.2037 154.0933 -117.8118 76.5358 105.2017 -0.2636 -2.9672 -0.6088 -135.8910 -43.0749 -88.5004 93.9574 27.3490 -29.2252 -14.9246 -5.2657 -32.5096
1.0999 70.7046 0.0000 -25.5226 46.7341 23.7294 12.5331 -0.3261 -6.4306 12.5331 -0.3261 -6.4306 10.2461 -21.6369 15.2133 10.2461 -21.6369 15.2133 -24.7973 15.4999 -63.5197 -13.7176 2.3764 -19.5667 20.8216 -4.7110 -25.2394 10.8578 11.1767 91.6686 -4.3217 -0.1085 2.8741 -17.3949 -8.7160 52.9626 166.9586 -58.8410 157.0847 -109.8403 82.4713 102.5960 -1.3817 -4.0218 -3.1359 -130.4205 -51.9415 -93.0487 87.9441 37.8290 -36.5857 -16.8614 -7.9513 -35.1547
1.1258 73.9795 0.0000 -22.5890 42.4858 21.7644 11.3960 -0.2570 -7.7757 11.3960 -0.2570 -7.7757 10.8746 -19.9363 14.4357 10.8746 -19.9363 14.4357 -30.7795 16.9627 -56.8931 -14.1082 2.5449 -20.3527 14.8180 -3.9054 -29.3834 17.0819 16.5782 88.2605 -4.9028 -0.2865 6.6845 -11.4494 -5.7682 53.3633 162.5459 -68.5361 154.6066 -54.9896 85.5700 51.4394 -2.8775 -5.0337 -6.4230 -118.7033 -60.7773 -89.4063 78.4196 45.5276 -37.7975 -19.1656 -9.5689 -38.8344
1.0800 77.1167 0.0000 -19.5250 36.8000 19.9510 9.7843 -0.0611 -9.2855 9.7843 -0.0611 -9.2855 11.1603 -17.4417 12.7920 11.1603 -17.4417 12.7920 -39.5558 17.1615 -45.5285 -14.3599 3.0311 -23.7218 4.6741 -1.3397 -31.9714 25.4411 22.1425 81.8381 -3.4922 -0.3703 12.1010 -5.0890 -2.5704 53.5727 147.6461 -78.3425 140.8034 -8.2554 81.1487 7.0726 -4.2631 -4.7259 -9.5522 -94.5911 -67.3089 -71.6114 64.4040 49.8923 -32.6561 -20.7666 -10.9569 -41.1302
1.0950 82.4176 0.0000 -16.3396 29.5509 18.3411 7.5471 0.3382 -10.5567 7.5471 0.3382 -10.5567 10.6487 -14.4172 10.5871 10.6487 -14.4172 10.5871 -49.4808 13.6866 -29.1952 -18.0052 4.4800 -27.7371 -8.4426 2.3245 -30.7387 39.3144 27.6615 69.1500 -0.6787 -0.1094 18.3145 3.3723 1.7119 53.8188 54.0900 -80.9333 47.0669 -0.2248 72.2565 0.1641 -5.3675 -1.5891 -12.6404 -54.5539 -65.5049 -36.7009 46.7663 49.2916 -22.4415 -21.7602 -10.3630 -43.2895
1.1707 88.5031 0.0000 -14.1378 23.7940 17.3930 6.1016 0.5716 -11.4429 6.1016 0.5716 -11.4429 10.7463 -11.5507 9.2150 10.7463 -11.5507 9.2150 -54.4365 7.6608 -14.8335 -25.3218 7.0055 -30.4841 -18.1555 4.3240 -26.5881 53.6983 28.2028 52.7859 4.5479 1.0267 25.4302 12.7734 6.2378 51.9135 24.5535 -67.2068 16.4557 -0.1991 61.0261 0.1174 -5.3282 3.0897 -13.6382 -25.7997 -53.4675 -13.1609 28.1918 41.8677 -10.9738 -22.3932 -9.0636 -45.2019
1.2762 92.0706 0.0000 -11.9922 17.5740 16.6354 4.7740 0.7553 -12.2498 4.7740 0.7553 -12.2498 10.6157 -8.1812 7.9603 10.6157 -8.1812 7.9603 -54.9691 2.2601 -4.3429 -34.0006 9.1373 -29.2943 -24.7557 4.8913 -22.0264 62.6396 24.1677 38.7675 13.3248 3.5911 30.0460 21.6018 9.7948 48.3729 18.0907 -54.8135 9.4373 0.8734 52.5951 -0.4316 -5.3094 6.3432 -14.4920 -15.8936 -42.3060 -6.1834 19.2011 36.7324 -6.4284 -23.2400 -7.8551 -47.5115
1.2560 94.4819 0.0000 -10.2880 12.2461 16.1596 3.7465 0.8413 -12.8421 3.7465 0.8413 -12.8421 10.4865 -4.8638 6.8673 10.4865 -4.8638 6.8673 -52.5860 -1.8398 3.7227 -43.6097 10.8651 -26.7434 -29.6696 4.8961 -18.3386 65.9128 19.1624 29.1874 22.4468 6.9301 33.9387 28.2785 11.8758 44.8692 15.5198 -44.3252 6.3541 1.9934 45.5390 -0.8368 -5.1123 8.5089 -14.6190 -9.8852 -31.9142 -2.8330 12.2501 31.5910 -3.4776 -22.3282 -7.5623 -45.9773
1.2756 96.2705 0.0000 -8.9783 7.8861 15.9470 2.8962 0.8945 -13.0581 2.8962 0.8945 -13.0581 10.5569 -1.5578 6.1726 10.5569 -1.5578 6.1726 -49.3472 -4.2398 9.2134 -52.2099 10.6916 -21.6227 -33.8687 4.6002 -15.0297 65.0515 14.8412 23.0865 32.5578 10.3046 34.3185 32.1697 12.4077 41.3114 13.8911 -36.5664 4.6096 3.8001 41.2366 -1.4302 -4.4577 11.7076 -13.7470 -6.0419 -23.6119 -1.2640 7.1693 27.7587 -1.7737 -21.4208 -6.7398 -44.7457
1.2349 97.0330 0.0000 -7.8613 4.1404 15.7947 2.2099 0.8900 -13.1352 2.2099 0.8900 -13.1352 10.6843 0.7448 5.7165 10.6843 0.7448 5.7165 -45.4086 -5.9828 14.2387 -60.3089 9.0864 -15.5768 -37.1575 3.7573 -11.1469 63.4306 11.2359 18.0884 41.3023 12.7345 32.9855 35.6423 12.4410 37.4589 12.7073 -30.7830 3.5115 5.3808 38.2187 -1.8655 -4.0886 12.9508 -13.0165 -4.0584 -17.4257 -0.6222 4.4106 25.3126 -0.9909 -20.8565 -6.8970 -43.5611
1.2107 97.4490 0.0000 -6.9529 1.1129 15.6875 1.5690 0.9010 -13.0988 1.5690 0.9010 -13.0988 10.6470 2.3646 5.3499 10.6470 2.3646 5.3499 -41.7868 -6.7543 17.5753 -65.6920 6.8255 -10.5551 -38.6474 2.9733 -8.4656 60.6395 8.8839 15.1329 48.8701 14.2255 30.7135 37.2102 11.9115 34.4363 11.5576 -26.4052 2.7201 7.4005 36.0383 -2.4103 -4.0334 14.1973 -13.2681 -2.9286 -12.5898 -0.3231 2.5730 23.1999 -0.5282 -20.3518 -6.7296 -42.6796
1.1480 98.1566 0.0000 -6.4204 -0.6829 15.6823 0.9877 0.9742 -13.0530 0.9877 0.9742 -13.0530 10.7010 3.3507 5.1509 10.7010 3.3507 5.1509 -37.9971 -6.5597 18.8998 -69.9313 5.2328 -7.4773 -40.7124 2.5680 -6.9141 58.3313 7.7912 13.9132 53.3593 15.2021 29.7450 37.0780 11.5833 33.6564 10.9387 -22.9725 2.2293 9.0559 34.6043 -2.8263 -3.7517 16.7968 -13.2857 -1.3917 -8.0686 -0.0982 0.5606 20.8395 -0.1031 -19.7140 -6.6132 -41.4990
0.9966 98.3717 0.0000 -6.0223 -1.9237 15.5905 0.4040 1.0807 -13.1398 0.4040 1.0807 -13.1398 10.7421 3.9174 4.8323 10.7421 3.9174 4.8323 -35.3139 -6.2433 19.4444 -72.6381 3.7878 -5.1513 -42.0809 2.4123 -6.2656 56.9339 7.0546 12.9717 56.7573 15.4929 28.2675 37.5743 11.3098 32.4583 10.2650 -20.8636 1.8948 10.6084 33.5540 -3.2065 -3.7392 17.9672 -13.7195 -0.5580 -5.0696 -0.0247 -0.4174 19.5292 0.0718 -19.4197 -5.9871 -41.2792
0.8795 98.0206 0.0000 -5.6639 -3.0529 15.5049 -0.1103 1.1711 -13.1488 -0.1103 1.1711 -13.1488 10.6316 4.4863 4.5872 10.6316 4.4863 4.5872 -33.8267 -5.9591 19.4266 -74.1735 2.8674 -3.7926 -42.8709 2.3981 -6.1033 56.5721 6.5627 12.1629 58.3343 15.4340 27.2935 38.1123 11.1958 31.6825 9.7164 -19.7456 1.6950 11.5565 32.8992 -3.4227 -3.9679 17.1494 -14.1925 -0.4529 -4.5156 -0.0179 -0.9757 19.8251 0.1705 -19.5147 -6.8462 -40.9749
0.7128 97.8200 0.0000 -5.3029 -4.1767 15.3800 -0.5614 1.2407 -13.1833 -0.5614 1.2407 -13.1833 10.5939 4.9519 4.3421 10.5939 4.9519 4.3421 -33.1382 -6.2741 20.8748 -74.0836 0.7993 -1.0590 -43.7414 1.7946 -4.4689 57.3661 5.7871 10.5568 59.4824 14.7690 25.5612 40.2452 11.2126 29.9962 9.4860 -18.7819 1.5724 11.8977 32.7572 -3.5084 -4.1347 16.8696 -14.6605 -0.5431 -3.9449 -0.0187 -1.0983 20.3931 0.1976 -19.5742 -7.3422 -40.8127
0.5487 97.8060 0.0000 -4.9832 -5.1500 15.2233 -0.8878 1.2817 -13.2469 -0.8878 1.2817 -13.2469 10.4650 5.4133 4.1804 10.4650 5.4133 4.1804 -33.3915 -6.6278 21.8535 -73.0400 -0.1305 0.1762 -44.5378 1.5054 -3.6753 58.3414 5.2121 9.3229 60.2519 13.8766 23.6877 42.2655 11.1182 28.2673 9.2903 -18.1509 1.4872 12.1486 32.9128 -3.6009 -4.1247 17.5929 -14.9469 -0.7611 -3.7369 -0.0248 -1.0356 21.2750 0.1945 -19.7961 -8.0117 -40.8724
0.4088 97.7446 0.0000 -4.7406 -5.8737 15.1050 -1.1186 1.3017 -13.1854 -1.1186 1.3017 -13.1854 10.2940 5.4264 4.1188 10.2940 5.4264 4.1188 -33.3831 -6.7820 22.3561 -72.7802 -0.5294 0.7183 -44.3142 1.3325 -3.2714 59.0764 4.9876 8.7901 60.2833 13.4854 23.0177 42.8494 11.0223 27.6288 9.2448 -17.4567 1.4224 12.1430 32.6629 -3.5703 -4.2815 17.6470 -15.5343 -0.8595 -3.2621 -0.0245 -1.1119 21.5374 0.2115 -19.8178 -8.2050 -40.8082
0.3336 97.6754 0.0000 -4.6132 -6.1644 14.9648 -1.2311 1.3070 -13.0924 -1.2311 1.3070 -13.0924 10.2799 5.4485 3.9188 10.2799 5.4485 3.9188 -33.1650 -6.7791 22.4985 -72.7729 -1.1272 1.5296 -44.3213 1.1621 -2.8526 59.6334 5.0787 8.8501 59.5965 13.5228 23.3936 42.6040 11.0765 27.9292 9.3289 -16.8923 1.3883 11.9102 32.1018 -3.4380 -4.4139 17.2375 -15.8119 -0.7569 -2.2430 -0.0148 -1.3932 20.5983 0.2532 -19.5911 -8.2237 -40.3605
0.2791 97.6448 0.0000 -4.4973 -6.3990 14.8088 -1.3236 1.3135 -13.0255 -1.3236 1.3135 -13.0255 10.2912 5.5608 3.9403 10.2912 5.5608 3.9403 -32.9198 -6.7218 22.4841 -72.9994 -1.5280 2.0649 -44.4164 1.0915 -2.6732 59.9794 4.9123 8.5015 59.7167 13.4153 23.1561 42.8276 11.0425 27.6928 9.3918 -16.3495 1.3521 11.7492 31.7642 -3.3537 -4.5056 16.9403 -15.9941 -0.7175 -1.3647 -0.0085 -1.5385 19.8555 0.2693 -19.3972 -8.1600 -40.0200
0.2935 97.6962 0.0000 -4.4622 -6.3493 14.6942 -1.3671 1.3308 -12.9263 -1.3671 1.3308 -12.9263 10.2714 5.4966 3.9674 10.2714 5.4966 3.9674 -32.7951 -6.6871 22.4582 -72.9860 -1.4834 2.0051 -44.4621 1.0754 -2.6306 60.0385 4.9517 8.5593 59.9300 13.5911 23.3561 42.3102 10.9879 27.9161 9.4771 -16.0548 1.3395 11.6488 31.7067 -3.3185 -4.5409 17.0947 -16.1921 -0.7356 -0.9352 -0.0060 -1.4839 19.5660 0.2559 -19.2873 -8.0413 -39.8711
0.3327 97.8919 0.0000 -4.5675 -5.7728 14.6208 -1.2650 1.3420 -12.8808 -1.2650 1.3420 -12.8808 10.2461 5.0639 4.0681 10.2461 5.0639 4.0681 -32.9425 -6.5554 21.9244 -72.9376 -0.6115 0.8273 -44.1045 1.3405 -3.3084 59.9453 5.4737 9.4768 59.3609 13.9480 24.2269 41.2091 11.0840 28.9422 9.6448 -16.1794 1.3741 11.3986 31.6302 -3.2386 -4.5076 17.5395 -16.2913 -0.7264 -0.9219 -0.0058 -1.3703 19.1903 0.2317 -19.2462 -7.9174 -39.8582
0.3465 98.1319 0.0000 -4.7228 -4.9664 14.5507 -1.0214 1.3051 -12.8541 -1.0214 1.3051 -12.8541 10.2132 4.5584 4.2483 10.2132 4.5584 4.2483 -33.4741 -6.5032 21.3966 -72.5003 0.7445 -1.0153 -43.0006 1.7471 -4.4332 60.2441 6.1557 10.5897 57.5290 14.1475 25.4756 40.1366 11.2311 30.1280 10.0175 -16.3142 1.4395 10.8101 31.5159 -3.0587 -4.4176 17.9000 -16.1470 -0.5213 -0.3197 -0.0015 -1.2872 18.1844 0.2060 -19.1398 -7.8916 -39.6650
0.3454 98.2711 0.0000 -5.0163 -3.6032 14.5168 -0.6169 1.2430 -12.8379 -0.6169 1.2430 -12.8379 10.1333 3.7981 4.7132 10.1333 3.7981 4.7132 -35.3687 -6.4513 20.0480 -70.5607 3.3247 -4.6977 -42.3450 2.4054 -6.2053 60.6810 7.4338 12.6669 54.3265 14.1682 27.2291 38.1910 11.3963 32.1563 10.5884 -16.6317 1.5520 9.7614 30.7674 -2.6918 -4.4234 17.3194 -15.8844 -0.3847 -0.3283 -0.0011 -1.1870 16.8566 0.1759 -19.2040 -7.9396 -39.7641
0.3630 98.1225 0.0000 -5.5007 -1.4974 14.5096 -0.1352 1.1893 -12.7496 -0.1352 1.1893 -12.7496 10.0364 2.8158 5.1279 10.0364 2.8158 5.1279 -38.3380 -6.2158 17.7547 -65.9914 6.7386 -10.3619 -39.6422 3.3634 -9.3135 61.7746 9.2351 15.3790 49.0081 13.7646 29.6633 35.5487 11.5155 34.9205 11.1469 -18.7289 1.8439 8.6815 30.9706 -2.4095 -4.4624 16.3938 -15.5907 -0.7383 -2.5727 -0.0166 -0.5682 16.9549 0.0847 -19.3402 -8.2545 -39.8588
0.4134 98.0508 0.0000 -6.1776 1.2895 14.5493 0.6502 1.0597 -12.5587 0.6502 1.0597 -12.5587 9.7958 1.6903 5.7528 9.7958 1.6903 5.7528 -43.2625 -5.1588 12.9622 -58.5407 9.1387 -16.2301 -36.9106 4.3180 -12.8902 63.1621 11.7157 18.9497 41.2203 12.0258 31.2930 32.4255 11.4767 38.1304 12.0969 -21.5361 2.3089 7.0303 31.5793 -1.9903 -4.4115 15.6521 -15.0912 -1.2857 -5.7432 -0.0645 0.4036 17.2057 -0.0611 -19.5398 -8.6306 -40.0424
0.4502 97.7116 0.0000 -6.9361 4.3952 14.6448 1.3464 0.9796 -12.4387 1.3464 0.9796 -12.4387 9.5541 0.5743 6.3359 9.5541 0.5743 6.3359 -47.8323 -2.7981 6.3044 -49.4622 10.0666 -21.6501 -33.2701 5.1696 -17.1843 64.0389 15.2139 24.1107 32.5234 9.5406 31.9302 28.0797 10.8985 41.7614 13.1908 -26.0477 3.0639 5.3661 34.2112 -1.6525 -4.2761 15.2614 -14.4733 -2.6847 -11.1049 -0.2610 2.5218 19.5250 -0.4340 -19.9290 -8.6999 -40.7522
0.5615 95.0484 0.0000 -7.9313 8.2248 14.8421 1.9655 0.9525 -12.2066 1.9655 0.9525 -12.2066 9.3427 -1.3778 7.1748 9.3427 -1.3778 7.1748 -52.2729 0.1795 -0.3658 -39.2097 8.8081 -24.4027 -29.9735 5.4447 -20.1440 64.2872 18.9499 29.7488 24.0660 6.6344 30.4236 24.4621 10.2210 44.8381 14.3636 -36.3975 4.7443 3.9877 41.5719 -1.5142 -4.8212 10.6357 -14.4796 -6.5788 -22.3893 -1.3034 7.7301 26.9795 -1.8570 -20.8802 -10.1977 -41.7436
0.6455 91.1224 0.0000 -9.0636 12.4323 15.1357 2.8801 0.8419 -11.9496 2.8801 0.8419 -11.9496 9.0207 -3.6956 8.2716 9.0207 -3.6956 8.2716 -54.9682 3.8383 -7.3709 -30.6856 7.1160 -25.5376 -26.3004 5.4033 -22.8375 62.9874 22.9027 36.5922 15.6447 3.7300 26.6681 20.0455 9.0286 48.1429 15.6554 -48.9020 7.1537 4.6159 51.7642 -2.2405 -5.6092 5.6870 -15.0984 -16.1647 -41.3378 -6.1330 20.3268 42.8918 -8.0563 -23.0295 -12.3132 -44.5342
0.5393 87.9766 0.0000 -10.5760 17.6016 15.6538 3.9364 0.7074 -11.4371 3.9364 0.7074 -11.4371 9.2893 -6.9146 9.6549 9.2893 -6.9146 9.6549 -55.3510 7.8295 -14.8678 -24.1416 5.5188 -25.4026 -22.8788 5.4056 -26.2642 60.2042 27.0967 45.1417 5.6374 1.0645 21.3698 15.4995 7.8294 53.3898 20.2529 -59.7691 11.7204 2.5575 60.0444 -1.4780 -5.9292 3.2237 -15.2006 -24.6629 -51.4609 -12.0282 30.4887 48.2575 -13.9194 -25.0758 -13.2735 -47.6210
0.4184 83.4246 0.0000 -12.5501 23.9189 16.4455 5.4662 0.4442 -10.8633 5.4662 0.4442 -10.8633 9.5869 -10.0953 11.3054 9.5869 -10.0953 11.3054 -51.9603 13.0923 -26.5016 -16.9703 3.5627 -23.5511 -15.3399 4.3610 -31.5740 49.4077 29.5000 59.5656 -1.7844 -0.2570 16.3908 5.6895 3.0986 57.1195 31.3949 -72.5931 23.3261 2.6250 69.8025 -1.8314 -6.4455 -0.6055 -15.4115 -44.0150 -62.5515 -27.5878 47.7865 53.3715 -25.1062 -27.6898 -13.9461 -51.7193
0.2835 78.3489 0.0000 -15.0198 30.8280 17.7140 7.1101 0.1601 -9.9208 7.1101 0.1601 -9.9208 10.0536 -13.5113 12.9192 10.0536 -13.5113 12.9192 -46.2254 17.2069 -39.0383 -11.2480 1.8988 -19.1048 -7.7988 2.5813 -36.5806 36.6839 27.6534 73.1779 -6.5791 -0.6583 11.4159 -3.5302 -1.9782 58.5196 86.8065 -81.8769 78.7278 -3.6112 78.6135 2.9568 -6.6315 -4.3309 -14.9121 -73.9100 -67.1940 -53.1104 65.1251 52.5129 -34.9704 -31.0433 -14.3661 -57.0240
0.1931 74.5842 0.0000 -17.5707 36.7513 19.2789 8.5180 -0.0533 -8.9756 8.5180 -0.0533 -8.9756 10.2884 -15.4519 14.3240 10.2884 -15.4519 14.3240 -39.7923 19.0238 -49.6851 -7.9828 1.0108 -14.4096 0.1672 -0.0571 -37.7370 26.1817 23.0427 82.4745 -8.1088 -0.4847 6.8301 -11.2981 -6.3790 58.7901 142.6315 -76.2994 133.4142 -38.0971 83.7186 34.3795 -5.9503 -6.3497 -12.9820 -103.1100 -64.0327 -76.4492 80.0537 47.2962 -40.3853 -33.7936 -13.2639 -62.1641
0.1720 71.0080 0.0000 -20.4639 42.3330 21.2844 9.6875 -0.1826 -8.0284 9.6875 -0.1826 -8.0284 9.9248 -17.9620 15.1972 9.9248 -17.9620 15.1972 -32.9895 18.9836 -58.9008 -6.1698 0.5285 -9.7835 7.3114 -2.3955 -36.2402 18.2926 17.9125 88.7768 -9.8347 -0.2337 2.7153 -18.3323 -10.3077 58.4082 156.5681 -66.7353 145.0420 -98.5513 81.4231 89.9741 -3.8234 -8.4461 -8.1024 -119.4785 -56.5441 -85.3403 89.8740 38.3272 -38.2491 -37.1759 -10.8037 -69.2164
0.1513 68.2094 0.0000 -24.0757 47.6517 23.9904 10.7434 -0.2592 -7.0522 10.7434 -0.2592 -7.0522 9.9120 -20.2229 16.5131 9.9120 -20.2229 16.5131 -25.3635 16.8647 -66.7530 -5.6721 0.3550 -7.1569 15.8636 -4.6414 -32.4361 11.0663 11.8362 93.8763 -10.0407 0.2239 -2.5478 -26.6546 -14.6410 56.9417 159.0150 -57.0662 142.3790 -112.1277 71.6260 93.9987 -0.3040 -8.4063 -0.6454 -128.8592 -47.1788 -84.7676 97.5695 26.6671 -30.2819 -39.6632 -5.5266 -77.2875
0.1542 65.6645 0.0000 -27.2437 51.1486 26.5032 11.3270 -0.2671 -6.2340 11.3270 -0.2671 -6.2340 9.8619 -21.1528 16.9401 9.8619 -21.1528 16.9401 -19.1613 13.8033 -71.2898 -6.2913 0.4079 -7.4113 22.2142 -5.6918 -28.4187 5.8910 6.5412 95.9993 -8.3969 0.3878 -5.2786 -33.4774 -17.2899 53.6360 160.4990 -49.2953 138.9372 -118.5308 62.9479 91.6714 2.9110 -6.1793 6.3839 -131.3924 -39.8111 -77.4474 102.8520 15.4608 -19.3188 -40.8869 0.1288 -84.4369
0.3142 63.1697 0.0000 -29.2810 52.8112 28.1415 11.7350 -0.2564 -5.6848 11.7350 -0.2564 -5.6848 9.5366 -21.3741 16.9207 9.5366 -21.3741 16.9207 -17.1998 13.0424 -74.1679 -6.1405 0.3455 -6.4352 24.5875 -5.4693 -24.7259 3.9886 4.4451 96.2017 -7.8469 0.4355 -6.3432 -36.4829 -18.4874 52.5598 160.8468 -44.0778 134.7497 -122.6546 55.8277 88.1821 5.6605 -5.4693 12.5205 -132.0522 -32.4668 -66.4301 109.0652 3.9071 -5.4822 -41.3369 6.3016 -91.8909
0.4518 60.3589 0.0000 -31.5412 54.3514 29.9224 11.9500 -0.2452 -5.4818 11.9500 -0.2452 -5.4818 9.4731 -21.7996 17.2499 9.4731 -21.7996 17.2499 -14.6442 11.4852 -76.0957 -5.7263 0.2932 -5.8564 27.5031 -5.5454 -22.3878 1.7189 1.9273 96.5424 -7.2696 0.4074 -6.4065 -40.6242 -19.7422 50.3564 161.1789 -39.2627 130.1569 -125.1220 48.7584 82.2303 8.8547 -4.9795 19.6434 -133.2386 -25.7382 -55.7071 115.2062 -6.1876 9.7372 -41.5151 11.5985 -98.9948
0.5139 57.6237 0.0000 -34.0509 56.0858 31.7752 12.2774 -0.2768 -5.5348 12.2774 -0.2768 -5.5348 9.6966 -22.3301 18.1020 9.6966 -22.3301 18.1020 -12.5359 10.1360 -77.8375 -4.8577 0.1643 -3.8713 31.3213 -5.7275 -20.2340 0.0043 0.0049 97.4685 -7.6073 0.4076 -6.1247 -43.3424 -20.3090 48.5258 161.5418 -34.3664 124.5604 -127.6637 41.7542 75.6377 10.3079 -5.2771 22.7014 -133.4712 -19.5038 -43.5781 121.7203 -15.9896 28.2799 -39.3405 9.0049 -92.1695
0.4951 55.3416 0.0000 -35.0801 56.7495 32.3279 12.4722 -0.3088 -5.4712 12.4722 -0.3088 -5.4712 9.4518 -22.5220 18.2099 9.4518 -22.5220 18.2099 -10.9459 9.1461 -79.7105 -4.3603 0.0931 -2.4445 35.0971 -5.3681 -16.8650 -1.0748 -1.2230 97.3818 -7.9137 0.3409 -4.9247 -44.8098 -20.3070 46.9603 161.4629 -31.1309 119.2718 -130.0245 36.1456 69.9991 11.6255 -5.2397 25.5460 -132.8992 -14.8066 -33.2001 127.9310 -22.2234 43.8076 -36.3526 5.7310 -83.2738
0.3727 53.0987 0.0000 -35.5041 57.1938 32.2217 12.6219 -0.3685 -5.5671 12.6219 -0.3685 -5.5671 9.1515 -22.3522 18.3635 9.1515 -22.3522 18.3635 -10.5068 8.7500 -79.5258 -4.2311 0.0980 -2.6532 38.3421 -5.9789 -17.0850 -1.4555 -1.6665 97.7322 -7.6286 0.2457 -3.6845 -45.7658 -20.5730 46.5353 161.1580 -28.0929 112.8954 -131.7754 30.4787 62.6559 12.8724 -5.0080 28.3010 -132.2602 -11.4886 -25.6142 132.8004 -26.0440 55.7906 -33.9000 4.3615 -77.5156
0.2136 52.8112 0.0000 -35.2426 57.3462 31.4255 12.7519 -0.4272 -5.3321 12.7519 -0.4272 -5.3321 8.5322 -21.8135 18.4203 8.5322 -21.8135 18.4203 -10.0071 8.4014 -79.9874 -4.6313 0.1237 -3.0585 40.5536 -6.4285 -17.2861 -1.0990 -1.2577 97.7066 -8.3881 0.1760 -2.3996 -45.0379 -20.1224 46.3370 160.4649 -26.4638 107.5829 -132.0272 27.1684 57.0096 13.9145 -0.2701 32.8670 -131.1555 -8.6639 -18.9418 136.7093 -29.2666 66.6853 -31.6231 9.3376 -79.3205
0.1040 51.9437 0.0000 -34.7514 57.3160 30.5856 12.8165 -0.4669 -5.1940 12.8165 -0.4669 -5.1940 7.9087 -21.4902 18.0676 7.9087 -21.4902 18.0676 -10.4805 8.8052 -80.0237 -5.0095 0.1568 -3.5844 39.7634 -6.5647 -18.0227 -0.7752 -0.8829 97.4386 -8.1855 0.0245 -0.3423 -42.8475 -19.5025 47.3054 160.2967 -24.6653 103.0803 -132.2289 24.3118 51.8778 13.9572 2.5183 34.5714 -130.6674 -7.8141 -16.9178 137.4169 -29.7158 68.4892 -30.6766 9.1802 -77.3272
0.2061 51.9593 0.0000 -33.1339 56.2272 28.9221 12.9083 -0.5274 -5.4122 12.9083 -0.5274 -5.4122 7.4046 -21.1338 17.5991 7.4046 -21.1338 17.5991 -12.3275 10.2120 -79.2077 -5.3698 0.2104 -4.4854 37.8803 -6.2920 -18.1995 0.3507 0.3984 97.2883 -7.7202 -0.0265 0.3920 -39.4470 -18.6158 49.1359 160.1154 -26.7190 107.1382 -133.0033 27.9514 59.5757 12.9981 0.6219 31.2558 -130.5569 -10.1073 -21.7453 133.7412 -26.1828 57.1302 -32.4554 2.3314 -72.8068
0.6306 53.4666 0.0000 -31.8079 55.3118 27.5699 12.8466 -0.5472 -5.5614 12.8466 -0.5472 -5.5614 7.2622 -20.9885 17.1451 7.2622 -20.9885 17.1451 -13.7766 11.2021 -78.1387 -6.0729 0.3058 -5.7600 36.0237 -6.2393 -19.0311 1.5372 1.7417 97.1405 -7.1519 -0.0261 0.4179 -36.1878 -17.7657 51.1271 160.2054 -29.5865 113.0950 -133.0254 33.3839 69.2155 11.1142 -0.2270 26.4869 -130.8548 -13.3197 -28.6493 128.7544 -22.2914 44.6650 -31.9011 -0.4828 -69.0774
1.1373 55.4461 0.0000 -30.4524 54.1504 26.3993 12.7134 -0.5364 -5.7387 12.7134 -0.5364 -5.7387 6.8464 -21.1149 16.0620 6.8464 -21.1149 16.0620 -15.4494 12.2338 -76.6220 -7.3949 0.5252 -8.1142 33.4752 -6.1517 -20.2619 2.4211 2.7189 96.6342 -5.0842 0.0013 -0.0298 -32.1956 -15.6194 50.8391 160.3312 -33.1311 119.5356 -132.6342 39.6860 78.8919 8.8375 -1.3227 20.7871 -131.6361 -17.8832 -38.6201 122.9801 -15.4337 28.0147 -28.5255 -4.2406 -59.8029
1.8130 59.4570 0.0000 -29.0732 53.2461 25.2940 12.8786 -0.5534 -5.8103 12.8786 -0.5534 -5.8103 7.3180 -21.1696 15.8872 7.3180 -21.1696 15.8872 -16.7807 12.9919 -75.3352 -9.7062 0.9491 -11.1431 30.4373 -6.3868 -23.1801 3.4464 3.8184 95.8664 -3.2853 -0.0039 0.1344 -28.4599 -13.9320 51.4496 160.2786 -39.5321 128.3733 -130.8957 49.9535 91.1163 5.8279 -2.4792 13.5153 -131.1963 -24.3367 -50.8445 114.1642 -6.4143 9.8939 -23.7966 -6.9169 -49.1509
1.9696 62.4734 0.0000 -26.4595 50.8259 23.3158 12.4843 -0.5186 -5.8481 12.4843 -0.5186 -5.8481 7.5685 -20.8596 15.3707 7.5685 -20.8596 15.3707 -20.1854 15.0264 -73.0737 -9.7458 1.2127 -14.1533 24.7671 -6.1598 -27.5391 5.8482 6.1930 93.2870 -3.0011 -0.0474 1.8090 -25.6902 -13.3676 54.3994 159.7161 -45.3943 133.6880 -129.8663 58.3272 100.0637 2.9218 -3.2819 6.7062 -129.2070 -32.5436 -63.1671 106.6225 7.4799 -10.0278 -18.7404 -8.3235 -38.6588
1.9335 66.2717 0.0000 -23.3686 47.1101 21.2440 12.0992 -0.5803 -6.3428 12.0992 -0.5803 -6.3428 8.0969 -19.7754 15.1255 8.0969 -19.7754 15.1255 -25.8098 17.3807 -67.4155 -10.5357 1.8851 -20.2343 15.9176 -4.7496 -33.0440 10.2149 10.0238 88.9121 -5.7309 -0.2481 4.9529 -19.6169 -10.3031 55.0824 157.9544 -53.3852 137.6444 -130.6445 66.2970 109.7445 1.4344 -1.9899 3.3657 -123.7111 -42.8879 -72.5753 101.1078 23.6094 -28.5056 -18.2538 -10.7582 -36.5114
1.7430 70.0111 0.0000 -19.6144 41.3087 18.7766 11.2393 -0.7058 -7.8468 11.2393 -0.7058 -7.8468 8.4216 -16.8992 14.6434 8.4216 -16.8992 14.6434 -35.5237 19.8742 -57.3501 -9.7289 2.2764 -26.2812 7.0003 -2.4036 -37.8616 18.2240 16.0486 82.6276 -10.8461 -1.0748 11.2848 -12.1659 -6.6853 57.4511 150.7614 -63.6307 134.3923 -129.2436 73.2706 114.9311 0.1280 -1.1882 0.3045 -112.9237 -52.6314 -73.4559 94.7283 36.0712 -38.9523 -20.9122 -12.2632 -40.7271
1.5594 75.5963 0.0000 -15.6832 33.5806 16.3644 8.9864 -0.5913 -9.6346 8.9864 -0.5913 -9.6346 8.8558 -13.2575 13.1158 8.8558 -13.2575 13.1158 -41.5912 19.1046 -47.7968 -9.7898 2.8536 -32.4330 -2.8433 1.1346 -43.5008 26.0103 20.2881 75.5278 -17.7718 -3.6308 22.9206 -7.2330 -3.4221 50.5933 120.6681 -75.3616 107.1832 -109.6136 80.9796 100.8844 -1.2110 2.2710 -3.0639 -83.3075 -61.0117 -55.3172 78.9259 48.0229 -40.2792 -20.9893 -12.1125 -40.9445
1.4362 84.1878 0.0000 -11.6746 25.0732 13.8082 6.6282 -0.4872 -10.9648 6.6282 -0.4872 -10.9648 9.1952 -8.4454 11.0824 9.1952 -8.4454 11.0824 -44.1194 16.3712 -39.0862 -4.9211 2.3097 -50.2651 -7.0381 3.5638 -53.6688 29.7763 21.4041 70.8155 -43.8751 -16.0228 38.5239 -12.9566 -5.2191 43.7389 46.1641 -69.9128 33.1799 -34.2737 76.3782 27.2674 -1.5571 8.9024 -4.5116 -44.4764 -54.9922 -24.0276 55.0189 50.9952 -27.8967 -19.1270 -9.3678 -38.8636
1.3645 89.2168 0.0000 -8.3455 15.0309 12.1291 3.6461 -0.0654 -12.1513 3.6461 -0.0654 -12.1513 9.1527 -2.6964 9.6928 9.1527 -2.6964 9.6928 -39.7400 12.7468 -34.3493 9.0857 -7.3490 -77.8947 5.1613 -2.4988 -51.6442 33.9320 22.3117 65.7572 -52.8865 -22.3723 43.3675 -12.6254 -4.2908 37.4160 24.8448 -54.3874 12.9139 -12.9706 68.9559 8.9272 -1.9282 14.4373 -6.4043 -25.5503 -40.9725 -9.6842 36.9776 49.0450 -17.3465 -17.9128 -7.5132 -37.4573
1.3915 92.8765 0.0000 -6.4486 8.7074 11.6447 1.6285 0.3108 -11.8465 1.6285 0.3108 -11.8465 9.0103 -0.4483 8.1526 9.0103 -0.4483 8.1526 -25.6168 7.7515 -33.1873 43.2843 -33.5860 -74.5121 18.8987 -5.3996 -31.6376 27.4035 17.1798 63.5623 -69.4501 -24.6251 34.9605 -14.4843 -3.8299 29.4815 17.7007 -42.7134 6.9684 -3.5266 59.2612 2.0063 -2.1918 17.1707 -7.8705 -17.3309 -31.5463 -4.9300 23.6389 45.2779 -9.9758 -18.4745 -12.0199 -36.3374
1.4217 95.0838 0.0000 -4.5882 0.9781 11.5789 -0.5611 0.6445 -11.3950 -0.5611 0.6445 -11.3950 10.4634 2.3849 6.1289 10.4634 2.3849 6.1289 -0.9008 0.3007 -36.9151 62.6753 -24.4296 -39.1424 32.0210 -6.1525 -21.2162 15.2784 9.0434 61.0490 -70.8684 -15.0393 21.0189 -17.4695 -3.9298 25.1743 13.6694 -31.0497 3.8139 1.5629 50.4312 -0.7360 -2.5918 17.5850 -9.4194 -12.9254 -21.0371 -2.4098 15.9751 40.3182 -5.8978 -17.2908 -14.1312 -33.2204
1.4390 95.9491 0.0000 -3.3893 -3.9786 11.6629 -1.9167 0.9091 -12.3714 -1.9167 0.9091 -12.3714 11.9110 3.9633 5.2743 11.9110 3.9633 5.2743 31.0264 -9.3786 -32.9264 58.8752 -8.0149 -14.1532 26.6377 -2.0434 -8.6162 -3.5275 -1.8342 54.9350 -64.5539 -3.1065 4.9166 -23.0298 -4.1419 20.1302 11.1997 -23.9998 2.3878 6.1330 44.9224 -2.5375 -3.4336 18.7435 -12.9199 -9.5774 -13.8837 -1.1688 9.7276 36.6024 -3.2242 -13.1177 -13.1212 -25.7532
1.5155 97.3007 0.0000 -3.2239 -4.2608 11.7555 -2.1969 1.1028 -13.0705 -2.1969 1.1028 -13.0705 12.5432 3.0972 5.1118 12.5432 3.0972 5.1118 60.1362 -10.5147 -18.0622 38.8120 -0.8626 -2.4482 27.3115 -1.4467 -5.9496 -21.3569 -8.4732 42.8955 -50.1845 3.2571 -6.9489 -27.5817 -3.8072 15.4228 9.6163 -22.0397 1.8769 9.7016 40.8608 -3.6213 -4.1451 19.6730 -16.0485 -7.1755 -11.8485 -0.7455 5.2679 33.6634 -1.5947 -10.2005 -11.9565 -20.4365
1.5865 100.8497 0.0000 -3.5671 -2.0874 11.9138 -1.9621 1.1882 -13.3747 -1.9621 1.1882 -13.3747 13.1140 1.2596 5.7570 13.1140 1.2596 5.7570 74.5786 -4.6152 -6.0583 26.4718 0.6307 2.6809 27.6060 -1.0232 -4.1631 -34.7076 -10.4906 32.7431 -34.9593 3.5464 -11.2292 -29.2254 -3.6415 13.9032 9.4034 -22.9390 1.9120 10.4576 38.3150 -3.6419 -4.4876 20.7262 -17.9891 -5.1578 -13.8648 -0.6275 1.9871 33.1657 -0.5918 -8.2813 -12.1475 -16.5942
1.7555 106.9734 0.0000 -3.7144 -0.6799 12.1616 -1.4442 1.1036 -13.7014 -1.4442 1.1036 -13.7014 13.6249 0.1298 6.5350 13.6249 0.1298 6.5350 80.1942 0.1799 0.2137 19.0251 1.1108 6.6219 27.7201 -0.9878 -4.0019 -44.2069 -11.3992 27.6138 -22.7818 2.5897 -12.8025 -30.0397 -3.7195 13.7998 9.8254 -22.6940 1.9763 9.9825 36.6633 -3.3150 -4.6534 21.6483 -19.2637 -4.1517 -14.3191 -0.5217 -0.0350 31.6467 0.0099 -8.0688 -12.3499 -16.1290
1.8149 112.0844 0.0000 -4.0493 1.6806 12.4342 -0.9397 0.9742 -13.9048 -0.9397 0.9742 -13.9048 13.8310 -1.5788 6.3451 13.8310 -1.5788 6.3451 82.9349 4.2990 4.8640 14.5282 1.1942 9.3484 28.0160 -0.4826 -1.9344 -50.3966 -11.3274 23.8042 -14.6662 1.9649 -15.1807 -33.9290 -4.1792 13.6411 10.1495 -24.1753 2.1790 9.8935 36.4081 -3.2608 -4.7096 23.7402 -21.1117 -3.3220 -15.6967 -0.4580 -1.6643 30.9088 0.4602 -8.9423 -12.5146 -17.8160
1.8510 114.4706 0.0000 -3.8438 1.8210 12.5633 -0.9817 0.9361 -14.0984 -0.9817 0.9361 -14.0984 14.0104 -2.5264 6.9809 14.0104 -2.5264 6.9809 84.7820 5.7841 6.3353 11.4185 0.9550 9.5305 27.0018 -0.9946 -4.1408 -54.6970 -10.4378 20.0303 -10.5968 1.3637 -14.6253 -34.0872 -4.2730 13.8767 10.3555 -23.6668 2.1753 9.4753 36.5087 -3.1317 -4.7951 24.6559 -22.3106 -3.6251 -14.9650 -0.4763 -1.5277 30.2825 0.4134 -9.7991 -13.0522 -19.3623
1.8685 116.3630 0.0000 -3.5775 1.7250 12.6790 -1.1134 0.9140 -14.1500 -1.1134 0.9140 -14.1500 14.0084 -2.7604 7.2718 14.0084 -2.7604 7.2718 85.9752 7.0701 7.5836 9.5093 0.7803 9.3605 26.2793 -1.2784 -5.4724 -57.5693 -9.7434 17.6368 -9.0706 1.1250 -14.1111 -31.4203 -4.1130 14.5502 10.4846 -23.5017 2.1868 9.1049 37.1880 -3.0688 -4.8409 25.8395 -23.7072 -4.0988 -14.6537 -0.5272 -1.2249 30.5741 0.3348 -10.1476 -13.2860 -19.9796
1.8581 116.5487 0.0000 -3.1812 1.0229 12.7551 -1.4452 0.9301 -14.1489 -1.4452 0.9301 -14.1489 14.0776 -2.6812 7.3487 14.0776 -2.6812 7.3487 86.8101 7.2420 7.6556 9.0279 0.7048 8.9093 25.1179 -1.4322 -6.4223 -59.2087 -9.0333 15.8302 -8.9328 1.0706 -13.6412 -30.9875 -4.2358 15.1975 10.4924 -22.8677 2.1278 8.7902 37.7133 -3.0073 -4.7407 27.2289 -24.7889 -4.5988 -13.6032 -0.5488 -0.7240 30.7523 0.1991 -10.6768 -12.8883 -21.1138
1.7969 115.8111 0.0000 -2.9283 0.8350 12.7649 -1.7344 0.9653 -14.2368 -1.7344 0.9653 -14.2368 14.1022 -2.5919 7.3322 14.1022 -2.5919 7.3322 87.3664 7.9878 8.3624 9.0399 0.7124 8.9930 24.5632 -1.5664 -7.1864 -60.5358 -8.1205 13.8697 -8.7111 1.0034 -13.1163 -31.0055 -4.3434 15.5697 10.6152 -22.4673 2.1142 8.3128 38.0803 -2.8733 -4.5367 28.3374 -25.1203 -4.9877 -12.7522 -0.5577 -0.3661 30.5286 0.0999 -11.1229 -12.5071 -22.0902
1.7567 114.8725 0.0000 -2.7061 0.6845 12.7596 -1.8891 0.9473 -14.2145 -1.8891 0.9473 -14.2145 14.0439 -2.4505 7.1142 14.0439 -2.4505 7.1142 87.7688 8.2939 8.6221 9.1374 0.7274 9.0844 23.9722 -1.5859 -7.4600 -61.4079 -7.8584 13.1951 -8.9655 1.0268 -13.0415 -30.7423 -4.3639 15.7816 10.7236 -21.9858 2.0890 7.7988 38.4071 -2.7201 -4.1606 29.4544 -24.5447 -5.6462 -12.3648 -0.6121 0.4418 30.8041 -0.1217 -11.7675 -12.5977 -23.3171
1.7017 114.4321 0.0000 -2.4941 0.4362 12.7064 -2.0430 0.9329 -14.1207 -2.0430 0.9329 -14.1207 13.9259 -2.1945 6.9414 13.9259 -2.1945 6.9414 87.5365 8.7003 9.0811 10.2747 0.8107 8.9992 23.4784 -1.5660 -7.5254 -61.5558 -7.8006 13.0605 -10.0458 1.1727 -13.2829 -30.6866 -4.4590 16.1514 10.7840 -21.6811 2.0710 7.1847 38.7767 -2.5314 -3.9667 29.5789 -23.5990 -6.4237 -12.0651 -0.6796 1.3700 30.8769 -0.3784 -12.4694 -12.7051 -24.6423
1.6607 110.5438 0.0000 -2.2439 -0.0340 12.6129 -2.1705 0.9069 -13.9918 -2.1705 0.9069 -13.9918 13.7496 -1.7763 6.7306 13.7496 -1.7763 6.7306 86.5824 9.2961 9.8650 12.4705 1.1082 10.1171 22.9450 -1.6441 -8.0879 -60.7125 -7.7261 13.1539 -12.5400 1.4970 -13.5618 -30.6501 -4.5900 16.6404 10.7921 -21.2728 2.0326 6.3767 39.2545 -2.2761 -3.6217 29.7057 -21.7539 -7.4272 -11.7172 -0.7632 2.5964 30.8006 -0.7153 -13.2214 -12.3726 -26.2044
1.6056 105.4831 0.0000 -1.9614 -0.6992 12.5345 -2.3449 0.8926 -13.7360 -2.3449 0.8926 -13.7360 13.4209 -1.3342 6.4374 13.4209 -1.3342 6.4374 84.5299 9.2170 10.1372 16.5765 1.5952 10.9179 22.7734 -1.7099 -8.4755 -58.7245 -8.4556 14.9710 -16.3810 2.0770 -14.3561 -29.9953 -4.7957 17.7675 10.8100 -20.3934 1.9500 5.0772 39.1603 -1.8070 -3.4468 28.8514 -19.7508 -8.8866 -11.2923 -0.8803 4.3735 30.3212 -1.1856 -14.4992 -12.0111 -28.7968
1.5727 101.0285 0.0000 -1.5502 -1.9859 12.5182 -2.7500 0.9255 -13.2311 -2.7500 0.9255 -13.2311 12.9656 -0.5717 5.9910 12.9656 -0.5717 5.9910 80.8976 9.5725 11.2185 22.9406 2.2704 11.1553 21.9755 -1.5532 -7.9873 -55.5139 -8.8926 16.8095 -21.8099 2.6511 -13.6976 -29.2611 -4.8100 18.2799 10.8397 -19.2912 1.8476 4.1091 39.6496 -1.4819 -3.1526 28.5939 -17.8409 -10.7979 -10.6756 -1.0118 7.0587 30.3370 -1.9159 -15.5471 -10.8460 -31.2790
1.6064 99.3547 0.0000 -0.4854 -6.1464 12.5441 -3.5818 0.9467 -12.4594 -3.5818 0.9467 -12.4594 12.3917 1.8713 5.0751 12.3917 1.8713 5.0751 74.7035 9.2563 12.1091 32.6423 4.3287 14.7085 21.2435 -1.7592 -9.3604 -47.5949 -9.0159 20.2724 -33.7871 3.5021 -11.4965 -26.3177 -4.6769 19.8159 10.5813 -16.2973 1.5193 3.8455 41.8070 -1.4692 -2.5776 29.6746 -15.5439 -13.5427 -7.6757 -0.9127 11.4172 31.8381 -3.2663 -17.0422 -9.8962 -34.5902
1.5864 98.3718 0.0000 -0.1523 -7.4251 12.4945 -3.8560 0.9225 -11.6453 -3.8560 0.9225 -11.6453 12.0583 3.4336 4.3185 12.0583 3.4336 4.3185 67.1153 4.2351 6.3809 47.5636 5.8781 13.2906 18.3894 -1.2319 -7.5996 -36.5375 -11.6080 34.2288 -46.1543 2.3703 -5.5596 -20.9813 -3.5578 19.0427 10.6307 -17.5543 1.6460 3.1963 46.0650 -1.3592 -2.0828 29.8900 -12.7480 -16.3848 -8.2206 -1.1855 16.1262 34.4960 -5.0368 -18.2414 -9.6133 -37.0401
1.4960 95.8477 0.0000 -0.5033 -5.8858 12.4277 -3.5169 0.8662 -11.2364 -3.5169 0.8662 -11.2364 11.2398 3.5905 4.2214 11.2398 3.5905 4.2214 46.6713 5.5253 12.7646 67.3791 18.5029 27.4607 18.2720 -1.1289 -7.0111 -13.7316 -5.9725 46.8496 -67.6423 -5.9712 8.9027 -16.9825 -2.6721 17.7578 11.5323 -24.8816 2.5524 1.8249 54.4635 -0.9392 -1.7154 29.1666 -10.0778 -20.3829 -15.2763 -2.7621 23.8691 41.8692 -9.2455 -18.8145 -8.7307 -38.5907
1.2693 91.8153 0.0000 -2.1798 1.5135 12.4119 -1.8405 0.7081 -11.3961 -1.8405 0.7081 -11.3961 9.9409 2.0297 5.5769 9.9409 2.0297 5.5769 7.9677 -0.5307 -7.6087 128.6130 -56.3377 -28.8952 1.2451 0.1149 10.5425 12.1254 6.8315 58.6685 -54.4540 -24.6404 46.0003 -16.6984 -3.6813 24.7026 13.2690 -41.8056 5.0871 0.1940 66.6403 -0.1276 -1.1151 28.2002 -6.2203 -23.7141 -24.9233 -5.3129 30.8884 44.3058 -12.8355 -20.3316 -8.7569 -41.4904
0.8822 88.3205 0.0000 -3.8419 8.5232 12.5994 0.6141 0.2484 -11.7373 0.6141 0.2484 -11.7373 9.0785 -0.9560 6.3787 9.0785 -0.9560 6.3787 -17.7598 2.0715 -13.2013 -51.8120 42.4643 -77.3135 -17.3270 7.2276 -45.0277 23.9765 14.0476 60.2467 -32.7613 -20.4221 62.9987 -13.9152 -4.7043 37.2060 18.5856 -53.5928 9.4485 -10.8718 75.0595 8.3615 -0.7246 24.7620 -3.4276 -29.9923 -34.9063 -9.6282 41.3745 47.2299 -18.7492 -21.6542 -9.1906 -43.7481
0.6100 85.1914 0.0000 -5.1990 13.6520 12.9825 2.4109 -0.0409 -11.0641 2.4109 -0.0409 -11.0641 8.0179 -3.3859 7.3577 8.0179 -3.3859 7.3577 -35.4848 3.8081 -11.8637 -57.8049 18.0753 -32.1438 -33.3380 9.5908 -31.3031 33.2594 18.3469 56.7984 -16.6220 -9.2652 58.0344 -8.9755 -4.3820 51.9747 27.7474 -62.1738 16.9400 -39.0430 79.1786 32.6812 -0.8540 19.9606 -3.3586 -41.0662 -45.2249 -17.7337 57.2453 51.4844 -29.4849 -23.0980 -9.0054 -46.5449
0.4358 79.8203 0.0000 -7.4157 21.2329 13.7573 4.2942 -0.2291 -10.6733 4.2942 -0.2291 -10.6733 8.2839 -7.4235 9.5931 8.2839 -7.4235 9.5931 -42.8891 6.1054 -15.4637 -43.4130 11.0893 -27.4094 -27.5455 7.4893 -29.8997 38.7494 19.9238 53.0810 6.8690 2.3954 38.4122 6.2086 4.1704 67.7510 51.7905 -74.9653 40.8388 -89.8655 82.0879 81.9546 -1.7882 12.3669 -5.6266 -59.3190 -54.3148 -32.5687 71.8579 50.4453 -37.6941 -25.7572 -9.8729 -50.8445
0.2406 75.9950 0.0000 -10.6948 30.8468 15.4503 6.7448 -0.4830 -9.4735 6.7448 -0.4830 -9.4735 8.4990 -11.1569 11.4438 8.4990 -11.1569 11.4438 -43.0988 10.5144 -26.2320 -31.3457 8.8938 -30.9844 -12.7400 3.8425 -33.4485 29.9135 18.5211 62.7956 1.8605 0.5248 31.5031 0.6730 0.4241 64.4351 115.9112 -77.3545 103.9530 -116.4284 78.7860 105.9234 -2.7084 8.6048 -7.7881 -88.8727 -57.9729 -57.0221 85.5835 45.8093 -42.7247 -29.4061 -9.2041 -57.6854
0.1676 70.5175 0.0000 -14.5096 39.2176 17.9203 8.5228 -0.5152 -7.7280 8.5228 -0.5152 -7.7280 8.8306 -16.2128 12.8849 8.8306 -16.2128 12.8849 -41.5610 13.6755 -35.0723 -27.6637 6.7726 -27.0266 -9.2158 2.8022 -33.7632 22.4021 16.0303 70.8316 -0.5243 -0.1068 23.0229 -5.9839 -4.1458 69.4049 151.8678 -65.7941 137.6532 -135.2818 71.1813 120.2242 -2.8880 7.1250 -8.0397 -113.5340 -52.8617 -74.3720 97.3144 37.6582 -42.3689 -33.2141 -6.6621 -66.0332
0.0504 67.6219 0.0000 -19.8483 47.8198 21.8047 10.2775 -0.5583 -6.7971 10.2775 -0.5583 -6.7971 9.1177 -20.3131 14.4998 9.1177 -20.3131 14.4998 -28.2817 14.4262 -53.3449 -17.3596 4.6224 -29.6178 10.9151 -3.6583 -36.9650 10.5366 9.0335 81.1738 -5.8504 -0.8369 16.2679 -20.2597 -13.0683 65.3268 159.4357 -54.2947 141.0342 -131.6622 63.8579 108.4801 -0.2034 4.4386 -0.5367 -129.5698 -41.1398 -77.1066 105.0004 22.5274 -29.1005 -36.0523 1.2340 -77.8725
-0.0520 64.5270 0.0000 -24.6898 52.2937 25.6626 11.2453 -0.5080 -6.0748 11.2453 -0.5080 -6.0748 9.2153 -21.7381 15.5300 9.2153 -21.7381 15.5300 -20.6768 12.4134 -61.6032 -13.5504 3.2671 -26.9964 18.9784 -5.7303 -33.3377 3.7139 3.4424 85.6514 -5.0739 -0.4697 10.5703 -28.9533 -16.7913 59.5087 161.6574 -45.7716 138.1391 -127.7536 56.5463 95.2836 2.6893 0.8670 6.6266 -135.2028 -30.3763 -66.7446 109.4722 5.9878 -8.4605 -35.9970 10.3339 -88.4559
-0.1816 62.6798 0.0000 -29.6487 55.1293 29.7132 11.6942 -0.4252 -5.9241 11.6942 -0.4252 -5.9241 8.7919 -22.7581 16.4327 8.7919 -22.7581 16.4327 -15.4671 10.5211 -68.2740 -9.9419 1.7767 -20.2166 24.0078 -6.3868 -29.4058 -0.2421 -0.2389 89.2448 -5.1062 -0.2622 5.8748 -34.8665 -17.3571 51.8469 162.0282 -40.1669 133.2227 -125.0910 50.4313 84.3748 6.0574 -1.3373 14.3127 -136.8820 -24.5399 -57.6618 112.4351 -4.8032 7.1745 -35.7056 16.1397 -96.6485
-0.5641 60.3795 0.0000 -34.3827 57.2894 33.4533 12.0840 -0.3859 -5.8890 12.0840 -0.3859 -5.8890 8.4735 -23.5270 17.5433 8.4735 -23.5270 17.5433 -11.7844 8.8767 -73.8940 -7.0538 0.7576 -12.2457 29.1501 -6.5145 -24.6921 -2.8863 -2.9864 91.9542 -6.3181 -0.1642 2.9748 -36.5185 -14.5841 42.3971 162.4247 -34.4876 127.0495 -124.9884 43.5479 74.9863 8.7383 -2.4368 20.1841 -137.1860 -17.5987 -43.0933 119.0046 -18.4281 30.7966 -33.2784 19.5279 -98.4014
-1.2277 57.9287 0.0000 -37.6972 58.6618 35.9467 12.6052 -0.4024 -5.6356 12.6052 -0.4024 -5.6356 7.4111 -24.0063 17.6261 7.4111 -24.0063 17.6261 -9.8734 7.9602 -77.7046 -5.8695 0.3761 -7.3272 29.6174 -5.0701 -19.0139 -4.0396 -4.3334 94.0223 -7.6092 -0.0934 1.4043 -36.2681 -12.5821 37.2076 162.5237 -29.5058 119.4570 -125.1453 36.4742 64.8254 10.6315 -3.3350 24.1115 -135.4822 -13.3452 -31.9031 124.7459 -27.4152 49.9737 -30.2661 16.7436 -87.6696
-1.6639 56.1983 0.0000 -39.0426 59.0367 36.8025 12.7178 -0.3701 -5.1934 12.7178 -0.3701 -5.1934 7.0019 -23.7546 17.9839 7.0019 -23.7546 17.9839 -9.1498 7.6896 -80.0529 -5.4690 0.2282 -4.7756 29.9808 -4.6981 -17.4197 -4.0865 -4.3729 93.8814 -8.7018 -0.1432 1.8814 -38.7944 -14.0934 38.6893 162.7412 -25.6850 112.6972 -125.7094 30.9639 56.7578 11.3797 -1.4038 26.5754 -133.8451 -9.9418 -23.0753 130.7644 -32.8850 65.5690 -26.8990 18.6845 -84.0820
-1.9699 54.2176 0.0000 -37.4403 57.5670 35.1319 12.7186 -0.4086 -5.5789 12.7186 -0.4086 -5.5789 6.9800 -22.6120 18.0374 6.9800 -22.6120 18.0374 -10.9603 9.2225 -80.1073 -5.7621 0.1631 -3.2399 32.6887 -5.5874 -18.8945 -1.8057 -1.9485 94.3574 -10.0302 -0.2443 2.7838 -37.7986 -14.9968 42.0593 162.4366 -24.1590 108.3527 -128.2790 27.9546 54.3615 12.3421 -1.5822 28.6661 -132.5540 -7.9093 -17.8803 135.5269 -33.0530 71.9412 -28.0309 15.1533 -80.4912
-2.0905 53.5761 0.0000 -37.0351 57.2125 34.3256 12.7325 -0.4510 -5.7528 12.7325 -0.4510 -5.7528 6.9447 -22.4574 17.5831 6.9447 -22.4574 17.5831 -11.9090 9.9641 -79.7763 -5.4193 0.1311 -2.7689 32.6676 -5.4404 -18.4179 -0.9680 -1.0613 95.2641 -10.2309 -0.3157 3.5259 -37.9446 -15.5361 43.2865 162.2001 -22.6687 104.0032 -128.4589 25.0875 49.4861 12.8414 0.6223 30.8941 -131.4648 -7.0719 -15.6088 136.8336 -33.8570 75.1494 -27.0354 14.7634 -77.7667
-1.9616 53.6421 0.0000 -35.0946 55.6105 32.3678 12.6011 -0.4512 -6.0241 12.6011 -0.4512 -6.0241 7.1642 -21.9565 17.1458 7.1642 -21.9565 17.1458 -13.8393 11.4084 -78.9126 -6.3691 0.1530 -2.7493 33.0062 -5.2203 -17.4948 0.8234 0.9112 95.7959 -9.5219 -0.1835 2.2027 -35.3415 -14.9365 44.7324 162.4181 -24.1678 108.3148 -129.7774 28.8120 57.4519 11.5109 -1.1898 26.9673 -131.4121 -8.4750 -18.6433 134.6931 -30.8057 66.8582 -28.4547 6.7167 -70.0412
-1.7903 55.3342 0.0000 -33.7878 54.4272 31.1284 12.5428 -0.4272 -6.2284 12.5428 -0.4272 -6.2284 7.4625 -21.7456 17.2096 7.4625 -21.7456 17.2096 -14.9174 12.1043 -78.0041 -7.2521 0.1983 -3.1281 29.6487 -4.0825 -15.3393 1.0016 1.1299 96.8907 -7.4561 0.0401 -0.6148 -31.8470 -12.7603 42.8031 162.3247 -27.6044 115.3405 -129.5725 34.9509 67.5355 9.3010 -3.0707 21.2423 -131.3812 -12.1718 -26.5614 128.0605 -26.6630 51.8871 -27.8945 -0.3938 -61.8425
-0.9248 57.1900 0.0000 -32.6355 53.5182 30.0743 12.5628 -0.3884 -6.2832 12.5628 -0.3884 -6.2832 7.8308 -22.1243 17.0081 7.8308 -22.1243 17.0081 -15.3392 12.2773 -77.2257 -8.6995 0.3615 -4.7499 29.7934 -3.9034 -14.5996 1.3338 1.5177 97.3782 -5.1068 0.0916 -2.0548 -30.1089 -11.4837 40.9955 162.8540 -31.1321 123.1576 -128.3984 41.8956 76.7494 6.5205 -4.6132 14.6000 -131.5471 -16.2181 -35.1404 120.6712 -21.6875 37.1767 -23.3558 -5.7190 -49.1075
0.1532 61.6885 0.0000 -31.5145 52.6916 29.0427 12.7703 -0.3887 -6.2158 12.7703 -0.3887 -6.2158 8.4238 -22.9270 16.1710 8.4238 -22.9270 16.1710 -15.4753 12.2980 -76.8216 -11.3914 0.6295 -6.3051 32.8819 -5.7007 -19.1540 1.9580 2.2397 97.6791 -2.7118 0.0899 -3.7950 -30.7263 -13.1010 45.3631 163.3666 -38.0043 133.9985 -126.2272 53.6198 89.8102 3.3034 -5.2538 7.3465 -131.6965 -21.7497 -46.3843 111.0307 -14.0929 20.4028 -17.4372 -3.9358 -38.4381
0.1618 64.1498 0.0000 -29.7381 50.9478 27.6491 12.8040 -0.3956 -6.1579 12.8040 -0.3956 -6.1579 8.3792 -22.8655 15.8845 8.3792 -22.8655 15.8845 -18.6976 14.3420 -74.7760 -11.8108 0.9015 -8.6986 31.9810 -6.8532 -23.6039 3.5995 4.0436 96.6566 -1.4293 0.0569 -4.5618 -30.4252 -14.6042 50.4618 163.4586 -43.0128 139.5018 -122.5123 60.8941 93.9639 2.1268 -6.5151 4.6421 -131.9186 -29.0670 -60.3264 103.5885 -0.9220 1.1713 -17.1660 -5.6122 -36.9562
0.0516 66.9303 0.0000 -27.3050 48.1524 25.9344 12.6542 -0.4076 -6.2890 12.6542 -0.4076 -6.2890 8.5443 -21.4376 15.7099 8.5443 -21.4376 15.7099 -23.8127 17.1521 -71.1480 -11.2012 1.1550 -11.7376 27.1673 -7.0433 -28.5790 7.0427 7.6234 94.5471 -2.0029 0.0689 -3.9417 -27.2439 -14.8872 56.6621 163.6315 -49.6073 145.4271 -123.9942 68.6326 104.1574 0.8815 -6.7898 1.9167 -129.2823 -37.9425 -71.9078 98.2470 13.5094 -15.5845 -18.6084 -7.8330 -38.6588
-0.0588 69.1398 0.0000 -25.1150 45.2471 24.6017 12.3173 -0.4306 -6.8909 12.3173 -0.4306 -6.8909 8.9847 -20.4946 15.5696 8.9847 -20.4946 15.5696 -30.3920 19.9591 -65.8714 -10.4620 1.1973 -13.0217 18.9742 -5.0153 -29.3707 11.3822 11.7797 91.9800 -2.2938 0.0490 -2.4491 -20.6019 -11.8382 59.4046 163.7484 -56.0602 149.9741 -125.0201 75.3114 112.0146 -0.3541 -7.5105 -0.7617 -125.6211 -45.5912 -78.5752 94.5104 24.0430 -25.9500 -22.3600 -10.9538 -44.0666
-0.1427 72.1485 0.0000 -22.6053 41.4515 23.0721 11.4670 -0.4103 -8.0042 11.4670 -0.4103 -8.0042 9.6287 -18.6054 15.1658 9.6287 -18.6054 15.1658 -36.1735 20.9473 -59.0226 -10.1117 1.4154 -15.8962 12.7523 -3.6932 -32.1875 16.5555 16.2384 88.8767 -3.2308 -0.0186 0.6591 -14.4582 -8.3304 59.7219 162.2755 -64.5040 152.2405 -120.3362 82.2370 113.3962 -2.4351 -7.5451 -5.2331 -118.1567 -54.2515 -81.0772 87.8619 34.7485 -33.5482 -24.4637 -12.2864 -47.1034
-0.2067 75.4211 0.0000 -19.8251 36.3512 21.4330 10.0285 -0.2806 -9.5874 10.0285 -0.2806 -9.5874 10.1459 -16.3275 13.8644 10.1459 -16.3275 13.8644 -43.8160 20.4167 -48.2436 -10.7388 1.8957 -19.9668 3.7912 -1.1561 -33.9079 24.9794 22.1998 83.0633 -4.0366 -0.2154 6.1069 -6.9839 -3.9928 59.4732 155.6465 -74.4428 148.2843 -45.1206 87.2727 43.2198 -4.5887 -7.2068 -9.8970 -103.0564 -61.2582 -73.3799 78.5473 42.4581 -35.2450 -25.7124 -13.3823 -48.6652
-0.3974 80.8231 0.0000 -17.0161 30.2645 19.9436 8.1434 -0.0136 -10.8951 8.1434 -0.0136 -10.8951 10.3776 -13.4454 12.1762 10.3776 -13.4454 12.1762 -51.6235 17.1026 -34.5394 -13.9982 3.1364 -25.1420 -6.6485 1.9007 -31.8781 36.5563 27.2033 72.4489 -2.6124 -0.3003 13.1127 1.2003 0.6456 56.5495 92.2672 -82.9924 85.2481 -1.6389 78.4885 1.3388 -5.7168 -4.4743 -12.8414 -73.8823 -64.6481 -50.8904 62.0828 47.0039 -29.3323 -25.6186 -12.3734 -49.0841
-0.4821 88.2985 0.0000 -14.7834 24.7030 18.8852 6.3013 0.3370 -11.9790 6.3013 0.3370 -11.9790 10.5340 -11.0471 10.5282 10.5340 -11.0471 10.5282 -56.2953 11.0881 -20.5660 -20.6351 5.5542 -29.8401 -16.2655 4.1586 -28.5099 50.1426 29.1350 58.1041 1.6558 0.2978 20.3888 9.6978 4.9622 54.1144 27.3336 -71.4987 19.8576 2.7802 65.6445 -1.7935 -5.8661 1.6545 -14.6093 -38.7192 -57.9593 -22.0244 41.0971 44.7560 -17.5469 -24.7982 -9.6560 -49.2577
-0.4342 93.7082 0.0000 -12.9208 19.8332 18.0457 4.8028 0.6442 -12.9640 4.8028 0.6442 -12.9640 10.6693 -8.8350 9.2676 10.6693 -8.8350 9.2676 -55.8057 5.4883 -10.3440 -29.9908 8.4283 -30.7609 -23.3210 5.3693 -25.6023 58.8582 26.7300 45.6768 9.6576 2.3753 27.5766 16.8525 8.0353 50.7347 18.6985 -57.2134 10.2616 1.7958 53.0709 -0.8968 -5.4823 5.9307 -14.8332 -18.3785 -44.1357 -7.5045 22.2540 35.3791 -7.1789 -24.0201 -9.2617 -48.0859
-0.4046 96.5962 0.0000 -11.2085 14.7361 17.4448 3.8455 0.7519 -13.5410 3.8455 0.7519 -13.5410 10.6314 -5.8147 8.0533 10.6314 -5.8147 8.0533 -54.6275 0.2757 -0.5338 -40.4338 10.9395 -29.1508 -30.0539 5.7057 -21.0323 63.3038 21.4924 34.2241 19.8641 6.1861 34.2999 24.1257 10.6829 47.2595 15.5094 -46.4218 6.6842 3.1859 45.9636 -1.3514 -4.6766 8.7006 -13.4404 -10.5249 -33.8451 -3.2104 13.0534 30.2766 -3.5456 -22.7980 -8.6942 -46.1745
-0.3471 98.2758 0.0000 -9.7227 9.9835 17.1185 2.9152 0.8845 -13.8612 2.9152 0.8845 -13.8612 10.3400 -2.5734 7.3184 10.3400 -2.5734 7.3184 -51.1271 -2.7365 5.7171 -50.1168 12.1032 -25.5511 -35.3722 5.6106 -17.4726 63.4836 16.7821 26.8229 30.9301 10.6162 37.1258 28.9780 11.8719 43.8356 13.2573 -38.4875 4.6462 5.8485 41.5543 -2.2206 -4.2930 11.8832 -13.3005 -7.0284 -26.0558 -1.6282 8.4658 27.4107 -2.0681 -21.8431 -8.0191 -44.7839
-0.3437 99.3627 0.0000 -8.5181 5.8697 17.0424 2.0269 0.9828 -13.7212 2.0269 0.9828 -13.7212 10.5406 0.0780 6.4715 10.5406 0.0780 6.4715 -46.5138 -4.9539 11.4951 -59.7918 10.9317 -18.8986 -39.2220 4.2689 -11.9433 61.9733 13.0671 21.5943 39.8842 13.7092 36.6616 31.8827 12.0920 40.6902 12.3672 -31.9006 3.5473 6.8556 38.2330 -2.3787 -3.7722 13.6822 -12.2467 -4.7918 -20.1426 -0.8516 5.2755 26.2312 -1.2300 -20.7643 -8.4260 -42.4993
-0.3345 99.7636 0.0000 -7.4126 2.0132 17.1490 1.2428 1.0255 -13.3547 1.2428 1.0255 -13.3547 10.6210 2.1646 5.7460 10.6210 2.1646 5.7460 -41.5183 -6.2989 16.5190 -67.0550 8.0454 -12.1173 -40.9175 2.4106 -6.4556 59.0552 9.8351 17.2747 48.7457 16.0294 34.5293 33.6280 11.7136 37.5000 11.2689 -26.5907 2.6710 8.6817 35.6580 -2.7970 -3.7880 14.3474 -12.5172 -3.7065 -15.1621 -0.4935 3.4690 25.4721 -0.7843 -19.7319 -9.2434 -40.0846
-0.3446 100.6205 0.0000 -6.8473 -0.0639 17.4157 0.6327 1.1477 -13.2421 0.6327 1.1477 -13.2421 10.7903 3.3347 5.2594 10.7903 3.3347 5.2594 -37.4812 -6.0555 17.7224 -70.8659 6.3306 -8.8884 -42.4735 1.9085 -4.9086 56.0944 8.5420 15.9590 54.0679 17.8031 34.1269 32.5026 11.1928 37.1602 10.6323 -22.4602 2.1169 10.3716 33.1734 -3.0970 -3.3395 17.0522 -11.9264 -2.4093 -11.2327 -0.2370 1.7017 24.1482 -0.3640 -18.6877 -9.3724 -38.0183
-0.3941 100.7610 0.0000 -6.4363 -1.4819 17.6176 0.1524 1.2543 -13.2898 0.1524 1.2543 -13.2898 10.9115 3.9604 4.9171 10.9115 3.9604 4.9171 -34.6256 -5.8168 18.5141 -73.0948 4.8119 -6.4885 -43.4797 1.6498 -4.1360 54.1161 7.6042 14.8255 58.1877 18.6317 32.8507 32.4782 10.8747 36.1947 10.1265 -20.1585 1.8046 11.7340 32.0390 -3.3798 -3.3115 17.8038 -12.1005 -1.5074 -8.5073 -0.1121 0.5085 23.1564 -0.1042 -17.9238 -9.6640 -36.4037
-0.5411 100.9597 0.0000 -6.0610 -2.7676 17.8140 -0.2721 1.3422 -13.3820 -0.2721 1.3422 -13.3820 10.9761 4.3390 4.5927 10.9761 4.3390 4.5927 -32.5981 -5.6468 19.1472 -74.6224 3.5366 -4.6395 -43.8434 1.3787 -3.4249 53.7985 6.9987 13.7466 60.1562 18.4746 31.3698 33.2226 10.7922 35.1385 9.9150 -18.0026 1.5744 12.4442 30.9411 -3.4568 -3.2221 18.4168 -12.0039 -0.7225 -6.0906 -0.0384 -0.5297 22.2979 0.1044 -17.5570 -10.2050 -35.4403
-0.6952 100.7819 0.0000 -5.6188 -4.2320 17.9840 -0.6957 1.4118 -13.5120 -0.6957 1.4118 -13.5120 11.0909 4.9059 4.3205 11.0909 4.9059 4.3205 -31.3129 -5.7498 20.3170 -75.3986 1.7729 -2.2938 -43.7270 0.9817 -2.4462 54.6709 6.1860 11.9353 61.3688 17.5854 29.2202 35.2060 10.8066 33.2005 9.6597 -16.3708 1.3927 12.9646 30.3160 -3.5261 -3.3919 17.6005 -12.3152 -0.4969 -4.6178 -0.0200 -1.0364 22.3287 0.2046 -17.4188 -11.0999 -34.7649
-0.8460 100.3423 0.0000 -5.2360 -5.4598 18.1037 -0.9963 1.4537 -13.6865 -0.9963 1.4537 -13.6865 11.1040 5.4855 3.9860 11.1040 5.4855 3.9860 -31.6848 -6.1558 21.4595 -74.3808 0.2759 -0.3636 -44.3999 0.5122 -1.2550 55.9818 5.6834 10.6708 61.5495 16.5119 27.3867 37.1315 10.8735 31.6421 9.3869 -15.4668 1.2775 13.1361 29.6153 -3.4868 -3.7194 15.9558 -12.8535 -0.6363 -4.0273 -0.0224 -1.2179 22.6819 0.2443 -17.4147 -11.9277 -34.3880
-1.0293 100.0968 0.0000 -4.9597 -6.3480 18.2201 -1.2027 1.4749 -13.7203 -1.2027 1.4749 -13.7203 11.0389 5.8333 3.8218 11.0389 5.8333 3.8218 -32.3254 -6.3482 21.6644 -73.8681 0.0796 -0.1059 -44.2835 0.3504 -0.8611 57.1699 5.5382 10.1455 60.8478 15.8071 26.6005 37.9850 10.9111 31.0174 9.2509 -14.9490 1.2163 13.0679 29.2094 -3.4189 -3.8920 15.3483 -13.2162 -0.8712 -4.0207 -0.0306 -1.2679 23.5021 0.2637 -17.2017 -12.4242 -33.7710
-1.1373 99.2758 0.0000 -4.7556 -7.0049 18.3195 -1.3306 1.4969 -13.8184 -1.3306 1.4969 -13.8184 11.0463 5.9997 3.5331 11.0463 5.9997 3.5331 -32.4850 -6.3984 21.7216 -74.1773 0.0190 -0.0252 -43.3467 0.4635 -1.1663 57.9406 5.4629 9.8506 60.3340 15.4288 26.2377 38.4050 10.8691 30.5559 9.0983 -14.5229 1.1617 12.8735 28.2580 -3.2534 -4.4830 12.1923 -13.9909 -1.1089 -4.0171 -0.0389 -1.6051 23.4364 0.3330 -17.0468 -13.7003 -32.9460
-1.1765 98.9401 0.0000 -4.4997 -7.7937 18.4040 -1.5028 1.5183 -13.9103 -1.5028 1.5183 -13.9103 11.0195 6.3133 3.2645 11.0195 6.3133 3.2645 -32.1724 -6.4572 22.1359 -74.5618 -0.5037 0.6617 -42.2680 0.4803 -1.2425 58.7412 5.1796 9.1898 59.9353 15.1399 25.9579 38.9309 10.7837 29.9034 9.0149 -13.8021 1.0933 12.7810 27.7120 -3.1649 -4.7469 11.0832 -14.4112 -1.2720 -3.5494 -0.0394 -1.6900 23.6101 0.3532 -16.8536 -14.3455 -32.3274
